{"type":"FeatureCollection","features":[{"type":"Feature","id":1000,"properties":{"osmId":"w4976337","name":null,"kind":"building","leisure":null,"building":"university","amenity":null,"levels":5,"clon":-76.4979696945946,"clat":44.22820359999999,"fid":1000},"geometry":{"type":"Polygon","coordinates":[[[-76.49767,44.2280497],[-76.497695,44.2280479],[-76.4976944,44.2280417],[-76.4977196,44.2280402],[-76.4979825,44.2280238],[-76.4979839,44.2280351],[-76.4980055,44.2280338],[-76.4980473,44.2280312],[-76.4980459,44.2280202],[-76.4980865,44.2280177],[-76.4980878,44.2280286],[-76.4981382,44.2280255],[-76.4981419,44.2280563],[-76.4981573,44.2280553],[-76.4981611,44.2280862],[-76.4981451,44.2280871],[-76.4981495,44.2281236],[-76.4981334,44.2281246],[-76.4981353,44.22814],[-76.498137,44.228154],[-76.4981539,44.228153],[-76.4981644,44.2282389],[-76.4981996,44.2285284],[-76.4981427,44.228532],[-76.4981415,44.2285227],[-76.4981323,44.2285233],[-76.498123,44.2285239],[-76.4981241,44.228533],[-76.4977843,44.2285544],[-76.497783,44.2285435],[-76.4977314,44.2285468],[-76.497715,44.2284157],[-76.4976862,44.2281809],[-76.497667,44.2281821],[-76.497662,44.2281418],[-76.4976811,44.2281406],[-76.49767,44.2280497]]]}},{"type":"Feature","id":1001,"properties":{"osmId":"w5144761","name":"Douglas Library","kind":"building","leisure":null,"building":"university","amenity":"library","levels":4,"clon":-76.49508237931032,"clat":44.22727827586208,"fid":1001},"geometry":{"type":"Polygon","coordinates":[[[-76.495215,44.22765],[-76.494864,44.227648],[-76.494866,44.227336],[-76.494839,44.227336],[-76.49484,44.227275],[-76.494805,44.227275],[-76.494805,44.227191],[-76.494838,44.227192],[-76.494838,44.227116],[-76.494976,44.227117],[-76.494977,44.227061],[-76.495055,44.227061],[-76.495056,44.227058],[-76.495161,44.227056],[-76.495219,44.227057],[-76.495219,44.227064],[-76.495229,44.227064],[-76.495228,44.227125],[-76.495219,44.227125],[-76.495217,44.227337],[-76.495224,44.227337],[-76.495223,44.227397],[-76.495216,44.227398],[-76.495215,44.227405],[-76.495205,44.227405],[-76.495204,44.227426],[-76.495204,44.227454],[-76.495217,44.227454],[-76.495215,44.22765]]]}},{"type":"Feature","id":1002,"properties":{"osmId":"w5144799","name":"Stauffer Library","kind":"building","leisure":null,"building":"university","amenity":"library","levels":2,"clon":-76.49625065514707,"clat":44.228350573529404,"fid":1002},"geometry":{"type":"Polygon","coordinates":[[[-76.496021,44.228985],[-76.496021,44.228976],[-76.4959888,44.2289764],[-76.4959894,44.229005],[-76.4957523,44.2290083],[-76.4957521,44.228979],[-76.4957519,44.2289576],[-76.4957378,44.228958],[-76.4957363,44.2288887],[-76.4957508,44.2288893],[-76.4957497,44.2288389],[-76.4958833,44.2288364],[-76.495873,44.228266],[-76.4958508,44.228266],[-76.495828,44.228266],[-76.495805,44.228261],[-76.49578,44.228251],[-76.495762,44.228238],[-76.495748,44.228219],[-76.495739,44.228195],[-76.495743,44.228173],[-76.495752,44.228154],[-76.495769,44.228137],[-76.495794,44.228123],[-76.495821,44.228115],[-76.495849,44.228113],[-76.49588,44.228116],[-76.495912,44.228128],[-76.495933,44.228144],[-76.495945,44.228158],[-76.4959529,44.2281808],[-76.495968,44.228178],[-76.495964,44.228166],[-76.495982,44.228163],[-76.495986,44.228175],[-76.496018,44.228169],[-76.496014,44.228157],[-76.49603,44.228154],[-76.496034,44.228166],[-76.496064,44.228162],[-76.49606,44.228149],[-76.496076,44.228146],[-76.49608,44.228159],[-76.496113,44.228154],[-76.496109,44.228141],[-76.496126,44.228138],[-76.49613,44.228151],[-76.496163,44.228145],[-76.496159,44.228132],[-76.496176,44.22813],[-76.496179,44.228142],[-76.496209,44.228137],[-76.496205,44.228125],[-76.496221,44.228122],[-76.496225,44.228134],[-76.49624,44.2281319],[-76.496257,44.228128],[-76.496253,44.228116],[-76.496271,44.228113],[-76.496275,44.228125],[-76.496307,44.22812],[-76.496303,44.228107],[-76.496321,44.228105],[-76.496325,44.228117],[-76.496353,44.228112],[-76.496349,44.228099],[-76.496365,44.228096],[-76.49637,44.22811],[-76.496402,44.228104],[-76.496398,44.228091],[-76.496413,44.228089],[-76.496415,44.228089],[-76.496419,44.228101],[-76.496452,44.228095],[-76.496448,44.228083],[-76.496465,44.22808],[-76.496469,44.228092],[-76.496498,44.228087],[-76.496494,44.228075],[-76.49651,44.228072],[-76.496514,44.228085],[-76.496547,44.228079],[-76.496543,44.228066],[-76.49656,44.228063],[-76.496564,44.228076],[-76.496596,44.228071],[-76.496592,44.228058],[-76.49661,44.228055],[-76.4966174,44.2280772],[-76.496625,44.228101],[-76.496605,44.228105],[-76.496613,44.228127],[-76.49663,44.228124],[-76.496634,44.228137],[-76.496617,44.22814],[-76.496625,44.228164],[-76.496643,44.228161],[-76.496647,44.228171],[-76.496628,44.228174],[-76.496636,44.228199],[-76.49666,44.2282],[-76.49666,44.228206],[-76.496651,44.228206],[-76.496652,44.228285],[-76.496653,44.228312],[-76.496661,44.228312],[-76.496662,44.228319],[-76.49647,44.228352],[-76.496472,44.228509],[-76.496525,44.228508],[-76.496526,44.228538],[-76.496501,44.228538],[-76.496501,44.228561],[-76.496526,44.228561],[-76.496526,44.22859],[-76.496474,44.228591],[-76.496479,44.228815],[-76.49653,44.228815],[-76.496531,44.228844],[-76.496505,44.228845],[-76.496505,44.228869],[-76.496532,44.228869],[-76.496532,44.2289],[-76.496418,44.228901],[-76.496418,44.228894],[-76.496397,44.228895],[-76.496397,44.228899],[-76.496331,44.2289],[-76.49612,44.228902],[-76.49612,44.228897],[-76.4961,44.228898],[-76.496101,44.228918],[-76.496116,44.228918],[-76.4961176,44.2289725],[-76.496118,44.228985],[-76.496021,44.228985]]]}},{"type":"Feature","id":1003,"properties":{"osmId":"w5144819","name":null,"kind":"building","leisure":null,"building":"yes","amenity":null,"levels":3,"clon":-76.49716293846153,"clat":44.22827632499999,"fid":1003},"geometry":{"type":"Polygon","coordinates":[[[-76.4974067,44.2281528],[-76.4974073,44.2281581],[-76.4974224,44.2281572],[-76.4974273,44.2281967],[-76.4974126,44.2281976],[-76.4974414,44.2284329],[-76.497715,44.2284157],[-76.4977314,44.2285468],[-76.4974297,44.2285656],[-76.4974277,44.2285487],[-76.4974055,44.2285501],[-76.4973844,44.2285514],[-76.4973864,44.2285676],[-76.4970752,44.2285872],[-76.4970174,44.2285908],[-76.4970137,44.2285609],[-76.4970105,44.2285611],[-76.4970001,44.2284756],[-76.4969881,44.2284763],[-76.4969852,44.2284521],[-76.4969967,44.2284514],[-76.4969833,44.2283401],[-76.4969719,44.2283408],[-76.4969692,44.2283188],[-76.4969819,44.228318],[-76.496972,44.2282356],[-76.4969818,44.228235],[-76.4969807,44.2282257],[-76.4969759,44.2281858],[-76.4969652,44.2281865],[-76.4969628,44.228167],[-76.4969537,44.2281675],[-76.496939,44.2281503],[-76.4969496,44.2281331],[-76.4969578,44.2281326],[-76.4969544,44.2281045],[-76.496992,44.2281022],[-76.4969914,44.2280975],[-76.4970143,44.2280872],[-76.4970399,44.2280945],[-76.4970406,44.2280998],[-76.4970785,44.2280975],[-76.49708,44.2281095],[-76.4970902,44.2281121],[-76.4970926,44.2281074],[-76.4972969,44.2281598],[-76.4973354,44.2281574],[-76.4973325,44.228134],[-76.4973519,44.2281328],[-76.4973716,44.2281316],[-76.4973744,44.2281549],[-76.4974067,44.2281528]]]}},{"type":"Feature","id":1004,"properties":{"osmId":"w5144959","name":"Robert Sutherland Hall","kind":"building","leisure":null,"building":"university","amenity":null,"levels":4,"clon":-76.49730905000003,"clat":44.2273390625,"fid":1004},"geometry":{"type":"Polygon","coordinates":[[[-76.497144,44.227613],[-76.497139,44.227597],[-76.497105,44.227603],[-76.497089,44.227559],[-76.49712,44.227553],[-76.497103,44.227503],[-76.49737,44.227457],[-76.4973588,44.2274233],[-76.497343,44.227376],[-76.497319,44.22738],[-76.497274,44.227252],[-76.497249,44.227257],[-76.497202,44.227119],[-76.49717,44.227117],[-76.497163,44.227122],[-76.497145,44.227128],[-76.497125,44.227128],[-76.497118,44.227118],[-76.4970995,44.2271176],[-76.4971,44.227097],[-76.497227,44.227098],[-76.497227,44.227059],[-76.497318,44.227059],[-76.497379,44.227051],[-76.4973878,44.2270769],[-76.497425,44.227187],[-76.497473,44.227178],[-76.497516,44.227303],[-76.497538,44.227298],[-76.4975402,44.2273042],[-76.497612,44.227507],[-76.497553,44.227517],[-76.497511,44.2275],[-76.497503,44.227514],[-76.497511,44.227535],[-76.497482,44.227569],[-76.497433,44.227548],[-76.497438,44.22756],[-76.4974077,44.2275655],[-76.497144,44.227613]]]}},{"type":"Feature","id":1005,"properties":{"osmId":"w5144995","name":"The Law Building","kind":"building","leisure":null,"building":"university","amenity":null,"levels":4,"clon":-76.49685601428571,"clat":44.22743952857143,"fid":1005},"geometry":{"type":"Polygon","coordinates":[[[-76.4970053,44.2271357],[-76.4969964,44.2275727],[-76.4970139,44.2275729],[-76.4970127,44.2276319],[-76.496989,44.2276317],[-76.4970148,44.2276927],[-76.4969647,44.2277036],[-76.4969344,44.2277034],[-76.4968891,44.227703],[-76.4968894,44.227685],[-76.4964239,44.2276814],[-76.4964256,44.2275685],[-76.4967499,44.227571],[-76.4967541,44.2272934],[-76.4967542,44.2272803],[-76.4967555,44.2271966],[-76.4967567,44.2271165],[-76.4967773,44.2271166],[-76.4968583,44.2271176],[-76.4970058,44.2271199],[-76.4970053,44.2271357]]]}},{"type":"Feature","id":1006,"properties":{"osmId":"w5145105","name":"Richardson Hall","kind":"building","leisure":null,"building":"university","amenity":null,"levels":3,"clon":-76.49601640000002,"clat":44.22685587200001,"fid":1006},"geometry":{"type":"Polygon","coordinates":[[[-76.495971,44.226994],[-76.4958699,44.226994],[-76.495842,44.226994],[-76.495842,44.226905],[-76.495848,44.226906],[-76.495848,44.226859],[-76.495844,44.226854],[-76.495844,44.226834],[-76.49585,44.226828],[-76.49585,44.226782],[-76.495843,44.226782],[-76.495843,44.226693],[-76.495974,44.226694],[-76.495975,44.226701],[-76.496284,44.226701],[-76.4962842,44.2267468],[-76.4962844,44.2267748],[-76.4962845,44.2267832],[-76.496275,44.226783],[-76.496274,44.226908],[-76.496282,44.226908],[-76.49628,44.226994],[-76.495976,44.226992],[-76.495971,44.226992],[-76.495971,44.226994]]]}},{"type":"Feature","id":1007,"properties":{"osmId":"w5145117","name":"Ontario Hall","kind":"building","leisure":null,"building":"university","amenity":null,"levels":2,"clon":-76.49501173243243,"clat":44.226581362162165,"fid":1007},"geometry":{"type":"Polygon","coordinates":[[[-76.4951361,44.226792],[-76.495017,44.226791],[-76.495017,44.226778],[-76.494927,44.226778],[-76.494928,44.226775],[-76.494826,44.226774],[-76.494825,44.226694],[-76.49481,44.226693],[-76.49481,44.226643],[-76.494829,44.226644],[-76.494829,44.226639],[-76.494925,44.226639],[-76.494926,44.226619],[-76.494925,44.226506],[-76.494814,44.226506],[-76.4948149,44.2264625],[-76.494815,44.226457],[-76.494826,44.226457],[-76.494827,44.226366],[-76.494901,44.226366],[-76.494904,44.226356],[-76.494915,44.226347],[-76.494931,44.226343],[-76.495098,44.226344],[-76.4950979,44.226367],[-76.495236,44.226367],[-76.4952362,44.2264624],[-76.4952558,44.2264624],[-76.4952557,44.226511],[-76.4952612,44.226511],[-76.4952608,44.2266519],[-76.4952559,44.2266519],[-76.4952558,44.2267012],[-76.4952357,44.2267011],[-76.495235,44.226781],[-76.495136,44.226781],[-76.4951361,44.226792]]]}},{"type":"Feature","id":1008,"properties":{"osmId":"w5145132","name":"Ellis Hall","kind":"building","leisure":null,"building":"university","amenity":null,"levels":3,"clon":-76.49618074800001,"clat":44.2263163,"fid":1008},"geometry":{"type":"Polygon","coordinates":[[[-76.4965349,44.2265678],[-76.496251,44.2265656],[-76.4962519,44.2265067],[-76.4961485,44.2265059],[-76.496148,44.2265373],[-76.4959296,44.2265356],[-76.4959298,44.2265204],[-76.49593,44.226506],[-76.495847,44.226493],[-76.495849,44.226385],[-76.495934,44.226373],[-76.4959347,44.226326],[-76.4959375,44.2261264],[-76.4960933,44.2261275],[-76.4960928,44.2261629],[-76.4961029,44.2261629],[-76.4962611,44.2261641],[-76.4962618,44.2261349],[-76.4962621,44.2261053],[-76.4963012,44.2261055],[-76.4964358,44.2261066],[-76.496486,44.2261069],[-76.4965192,44.2261071],[-76.4965417,44.2261073],[-76.4965349,44.2265678]]]}},{"type":"Feature","id":1009,"properties":{"osmId":"w5145133","name":"Jeffery Hall","kind":"building","leisure":null,"building":"university","amenity":null,"levels":3,"clon":-76.49602321923078,"clat":44.225924946153846,"fid":1009},"geometry":{"type":"Polygon","coordinates":[[[-76.4960395,44.2260816],[-76.4959616,44.2260815],[-76.4959617,44.2260508],[-76.4959617,44.2260268],[-76.4959568,44.2260268],[-76.4959568,44.2259986],[-76.4959528,44.2259986],[-76.4959528,44.2259842],[-76.4959529,44.225968],[-76.4959538,44.22586],[-76.4959538,44.225845],[-76.4959539,44.2258281],[-76.4959593,44.2258281],[-76.4959594,44.2258011],[-76.4959637,44.2258011],[-76.4959638,44.2257747],[-76.4959639,44.2257471],[-76.4960443,44.2257472],[-76.4960441,44.2258009],[-76.4962415,44.2258014],[-76.4962413,44.2258615],[-76.496241,44.2259691],[-76.4962405,44.2260287],[-76.4961037,44.2260281],[-76.4960396,44.226028],[-76.4960395,44.2260816]]]}},{"type":"Feature","id":1010,"properties":{"osmId":"w5145136","name":"Chernoff Hall","kind":"building","leisure":null,"building":"university","amenity":null,"levels":2,"clon":-76.49873758571427,"clat":44.224308147619055,"fid":1010},"geometry":{"type":"Polygon","coordinates":[[[-76.4986101,44.2246831],[-76.4986081,44.2246781],[-76.4985781,44.2246821],[-76.4985731,44.2246511],[-76.4985601,44.2246521],[-76.4985621,44.2246631],[-76.4985191,44.2246671],[-76.4985031,44.2245871],[-76.4985471,44.2245831],[-76.4985491,44.2245921],[-76.4985611,44.2245911],[-76.4985551,44.2245591],[-76.4985601,44.2245581],[-76.4987871,44.2245361],[-76.4987795,44.2244968],[-76.4987761,44.2244791],[-76.4987711,44.2244791],[-76.4987591,44.2244221],[-76.4987681,44.2244211],[-76.4987651,44.2244081],[-76.4987581,44.2244091],[-76.4987531,44.2243921],[-76.4987611,44.2243911],[-76.4987541,44.2243491],[-76.4987461,44.2243501],[-76.4987421,44.2243321],[-76.4987491,44.2243311],[-76.4987421,44.2242901],[-76.4987351,44.2242911],[-76.4987321,44.2242741],[-76.4987391,44.2242731],[-76.4987311,44.2242301],[-76.4987231,44.2242301],[-76.4987201,44.2242131],[-76.4987281,44.2242121],[-76.4987191,44.2241671],[-76.4987121,44.2241681],[-76.4987091,44.2241501],[-76.4987161,44.2241501],[-76.4987081,44.2241081],[-76.4986913,44.2241097],[-76.4986746,44.2241114],[-76.4986708,44.2241213],[-76.4986644,44.2241363],[-76.4986495,44.2241581],[-76.4986005,44.224163],[-76.4985616,44.2241306],[-76.4985381,44.2240992],[-76.4985208,44.2240607],[-76.4985141,44.2240201],[-76.4985186,44.2239797],[-76.4985327,44.2239375],[-76.4985497,44.2239068],[-76.4986046,44.2238999],[-76.4986185,44.2239118],[-76.4986357,44.2239279],[-76.4986422,44.2239338],[-76.4986706,44.2239307],[-76.4986679,44.2239145],[-76.4986811,44.2239131],[-76.4986791,44.2238971],[-76.4986671,44.2238981],[-76.4986621,44.2238741],[-76.4986855,44.2238709],[-76.4986991,44.2238691],[-76.4986981,44.2238601],[-76.4987051,44.2238591],[-76.4987071,44.2238681],[-76.4987671,44.2238631],[-76.4988041,44.2238591],[-76.4988031,44.2238511],[-76.4989241,44.2238391],[-76.4989291,44.2238681],[-76.4989081,44.2238701],[-76.4989131,44.2238921],[-76.4989261,44.2238911],[-76.4989291,44.2239001],[-76.4990361,44.2244671],[-76.4990301,44.2244681],[-76.4990401,44.2245231],[-76.4991201,44.2245151],[-76.4991261,44.2245211],[-76.4991181,44.2245231],[-76.4991601,44.2245761],[-76.4990781,44.2246081],[-76.4989941,44.2246331],[-76.498936,44.2246465],[-76.4989071,44.2246531],[-76.4989051,44.2246491],[-76.4989021,44.2246491],[-76.4988521,44.2246541],[-76.4988531,44.2246601],[-76.4988391,44.2246611],[-76.4988381,44.2246561],[-76.4987761,44.2246631],[-76.4987771,44.2246671],[-76.4987611,44.2246681],[-76.4987611,44.2246641],[-76.4987031,44.2246691],[-76.4987051,44.2246741],[-76.4986901,44.2246761],[-76.4986881,44.2246701],[-76.4986261,44.2246761],[-76.4986271,44.2246821],[-76.4986101,44.2246831]]]}},{"type":"Feature","id":1011,"properties":{"osmId":"w5145141","name":"Watts Hall","kind":"building","leisure":null,"building":"dormitory","amenity":null,"levels":6,"clon":-76.49929411714285,"clat":44.22415490285715,"fid":1011},"geometry":{"type":"Polygon","coordinates":[[[-76.4992417,44.2244364],[-76.4992287,44.2243694],[-76.4991887,44.2243744],[-76.4991827,44.2243454],[-76.4991417,44.2243494],[-76.4991027,44.2241554],[-76.4992357,44.2241424],[-76.4992137,44.2240274],[-76.4992577,44.2240234],[-76.4992452,44.2239589],[-76.4992417,44.2239404],[-76.4992167,44.2239424],[-76.4992147,44.2239324],[-76.4990677,44.2239474],[-76.4990457,44.2238334],[-76.4992897,44.2238104],[-76.4992957,44.2238404],[-76.4993067,44.2238394],[-76.4993047,44.2238334],[-76.4993777,44.2238254],[-76.4994437,44.2241714],[-76.4994347,44.2241714],[-76.4994407,44.2242024],[-76.4994287,44.2242034],[-76.4994348,44.2242325],[-76.4994387,44.2242514],[-76.4994307,44.2242524],[-76.4994227,44.2242674],[-76.4994397,44.2242724],[-76.4993707,44.2243954],[-76.4993677,44.2243954],[-76.4993587,44.2244124],[-76.4993187,44.2244014],[-76.4993227,44.2244284],[-76.4992417,44.2244364]]]}},{"type":"Feature","id":1012,"properties":{"osmId":"w5145148","name":"Chernoff Auditorium","kind":"building","leisure":null,"building":"university","amenity":null,"levels":2,"clon":-76.49819527894738,"clat":44.224471052631564,"fid":1012},"geometry":{"type":"Polygon","coordinates":[[[-76.4980958,44.2245617],[-76.49804,44.2245414],[-76.498066,44.2245339],[-76.498038,44.22441],[-76.498084,44.224384],[-76.4981318,44.2243819],[-76.4981233,44.2243387],[-76.4981098,44.2242697],[-76.4983078,44.2242543],[-76.4983502,44.2243239],[-76.4983712,44.2243908],[-76.498398,44.22451],[-76.4984116,44.2245854],[-76.4983656,44.2245902],[-76.4982605,44.2246011],[-76.4981752,44.22461],[-76.4981598,44.2245491],[-76.4981259,44.2245522],[-76.4980958,44.2245617]]]}},{"type":"Feature","id":1013,"properties":{"osmId":"w5145186","name":"Chown Hall","kind":"building","leisure":null,"building":"dormitory","amenity":null,"levels":5,"clon":-76.49699478437499,"clat":44.224211190625006,"fid":1013},"geometry":{"type":"Polygon","coordinates":[[[-76.4969293,44.2244158],[-76.4969203,44.2243738],[-76.4969343,44.2243708],[-76.4969143,44.2242638],[-76.4967643,44.2242788],[-76.4967673,44.2242898],[-76.4967053,44.2242968],[-76.4966917,44.2242264],[-76.4966723,44.2241268],[-76.4967313,44.2241218],[-76.4967343,44.2241338],[-76.4969253,44.2241148],[-76.4969203,44.2240918],[-76.4969643,44.2240878],[-76.4969713,44.2240788],[-76.4969793,44.2240778],[-76.4969933,44.2240768],[-76.4970033,44.2240828],[-76.4970453,44.2240788],[-76.4970503,44.2241008],[-76.4972423,44.2240808],[-76.4972403,44.2240698],[-76.4972993,44.2240638],[-76.4973333,44.2242338],[-76.4972723,44.2242398],[-76.4972713,44.2242268],[-76.4971173,44.2242428],[-76.4971393,44.2243508],[-76.4971553,44.2243488],[-76.4971633,44.2243928],[-76.4970524,44.2244037],[-76.4969293,44.2244158]]]}},{"type":"Feature","id":1014,"properties":{"osmId":"w5145295","name":"Morris Hall","kind":"building","leisure":null,"building":"dormitory","amenity":null,"levels":4,"clon":-76.49987501034482,"clat":44.222992334482754,"fid":1014},"geometry":{"type":"Polygon","coordinates":[[[-76.4998171,44.2233664],[-76.4998031,44.2232164],[-76.4997861,44.2232164],[-76.4997771,44.2231074],[-76.4997921,44.2231064],[-76.4997865,44.2230537],[-76.4997781,44.2229704],[-76.4997621,44.2229714],[-76.4997521,44.2228604],[-76.4997671,44.2228594],[-76.4997652,44.2228396],[-76.4997531,44.2227104],[-76.4998071,44.2227074],[-76.4998031,44.2226824],[-76.4998901,44.2226784],[-76.4998921,44.2227034],[-76.4999481,44.2227004],[-76.4999621,44.2228484],[-76.4999771,44.2228484],[-76.4999881,44.2229604],[-76.4999731,44.2229604],[-76.4999804,44.2230305],[-76.4999827,44.2230529],[-76.4999871,44.2230954],[-76.5000031,44.2230944],[-76.5000131,44.2232064],[-76.4999981,44.2232064],[-76.5000131,44.2233574],[-76.4998171,44.2233664]]]}},{"type":"Feature","id":1015,"properties":{"osmId":"w5145330","name":"McLaughlin Hall","kind":"building","leisure":null,"building":"university","amenity":null,"levels":2,"clon":-76.49541323750002,"clat":44.223862275,"fid":1015},"geometry":{"type":"Polygon","coordinates":[[[-76.4954365,44.2240082],[-76.4954355,44.2239722],[-76.4951175,44.2239732],[-76.4951165,44.2238292],[-76.4952245,44.2238292],[-76.4952225,44.2234452],[-76.4954505,44.2234422],[-76.4954545,44.2238282],[-76.4955555,44.2238272],[-76.4955585,44.2238282],[-76.4955586,44.2238424],[-76.4955595,44.2239732],[-76.4955065,44.2239732],[-76.4955055,44.2240082],[-76.4954732,44.2240082],[-76.4954365,44.2240082]]]}},{"type":"Feature","id":1016,"properties":{"osmId":"w5145332","name":"Watson Hall","kind":"building","leisure":null,"building":"university","amenity":null,"levels":5,"clon":-76.49744000535715,"clat":44.225590546428585,"fid":1016},"geometry":{"type":"Polygon","coordinates":[[[-76.497446,44.2257174],[-76.497445,44.2257144],[-76.497439,44.2257154],[-76.497426,44.2256694],[-76.497449,44.2256664],[-76.497443,44.2256424],[-76.497411,44.2256464],[-76.497412,44.2256494],[-76.497402,44.2256514],[-76.497128,44.2256884],[-76.497103,44.2256914],[-76.497101,44.2256874],[-76.497055,44.2256934],[-76.497044,44.2256474],[-76.497063,44.2256454],[-76.497059,44.2256294],[-76.497039,44.2256324],[-76.497028,44.2255884],[-76.497035,44.2255884],[-76.497035,44.2255864],[-76.497057,44.2255824],[-76.497378,44.2255384],[-76.49738,44.2255384],[-76.497382,44.2255424],[-76.497388,44.2255414],[-76.497389,44.2255484],[-76.497406,44.2255464],[-76.4974,44.2255254],[-76.497406,44.2255244],[-76.497406,44.2255224],[-76.497477,44.2255124],[-76.497479,44.2255154],[-76.497485,44.2255154],[-76.497499,44.2255724],[-76.497479,44.2255754],[-76.497483,44.2255924],[-76.497556,44.2255824],[-76.497524,44.2254634],[-76.49753,44.2254634],[-76.497523,44.2254384],[-76.49766,44.2254194],[-76.497664,44.2254334],[-76.497686,44.2254294],[-76.497683,44.2254154],[-76.497748,44.2254064],[-76.4977553,44.2254346],[-76.497814,44.2256614],[-76.497811,44.2256614],[-76.497812,44.2256664],[-76.497748,44.2256744],[-76.497744,44.2256584],[-76.497722,44.2256624],[-76.497726,44.2256774],[-76.497715,44.2256794],[-76.497716,44.2256814],[-76.497446,44.2257174]]]}},{"type":"Feature","id":1017,"properties":{"osmId":"w5145334","name":"Harrison-LeCaine Hall","kind":"building","leisure":null,"building":"university","amenity":null,"levels":2,"clon":-76.49688784545452,"clat":44.22531442727274,"fid":1017},"geometry":{"type":"Polygon","coordinates":[[[-76.4969055,44.2254949],[-76.4969057,44.2254725],[-76.4968844,44.2254723],[-76.496826,44.225472],[-76.496808,44.225484],[-76.4967992,44.2254839],[-76.496783,44.225471],[-76.4967831,44.2254662],[-76.4967884,44.2254663],[-76.4967887,44.2254495],[-76.496738,44.225449],[-76.496731,44.225453],[-76.496718,44.225447],[-76.496722,44.225225],[-76.496732,44.225221],[-76.496741,44.225227],[-76.4967916,44.2252275],[-76.496792,44.225209],[-76.49676,44.2252087],[-76.4967606,44.2251727],[-76.4968602,44.2251737],[-76.4968605,44.2251589],[-76.4968707,44.2251589],[-76.4968711,44.2251316],[-76.4969313,44.2251322],[-76.4969311,44.2251436],[-76.4969306,44.2251739],[-76.4969039,44.2251736],[-76.4969037,44.2251827],[-76.4969799,44.2251834],[-76.4969795,44.2252029],[-76.496993,44.225203],[-76.4970076,44.2252156],[-76.497022,44.225228],[-76.4970207,44.2252482],[-76.497047,44.225249],[-76.497097,44.225284],[-76.497094,44.225341],[-76.497059,44.225364],[-76.497058,44.225422],[-76.497017,44.225451],[-76.4969821,44.2254508],[-76.4969816,44.2254954],[-76.4969055,44.2254949]]]}},{"type":"Feature","id":1018,"properties":{"osmId":"w5145336","name":"Agnes Queen’s Art Gallery","kind":"building","leisure":null,"building":"university","amenity":null,"levels":2,"clon":-76.49612592666668,"clat":44.22542672333332,"fid":1018},"geometry":{"type":"Polygon","coordinates":[[[-76.496192,44.225595],[-76.496189,44.225525],[-76.4961589,44.2255286],[-76.4961609,44.2255479],[-76.4960626,44.2255531],[-76.4960651,44.2255767],[-76.4959621,44.2255822],[-76.4959589,44.2255511],[-76.4959094,44.2255537],[-76.4959054,44.2255146],[-76.4958911,44.2255153],[-76.4958853,44.2254585],[-76.4958991,44.2254578],[-76.4958952,44.22542],[-76.4959689,44.225416],[-76.4959697,44.2254238],[-76.496039,44.2254201],[-76.4960366,44.2253838],[-76.4960156,44.2253838],[-76.4960166,44.2253288],[-76.4960195,44.225168],[-76.4961383,44.2251695],[-76.4961346,44.2251371],[-76.4965048,44.2251153],[-76.4965273,44.2253123],[-76.4964869,44.2253147],[-76.496488,44.225333],[-76.496548,44.225332],[-76.496557,44.225589],[-76.496192,44.225595]]]}},{"type":"Feature","id":1019,"properties":{"osmId":"w5145338","name":"Grant Hall","kind":"building","leisure":null,"building":"university","amenity":null,"levels":2,"clon":-76.49512489473685,"clat":44.226022768421046,"fid":1019},"geometry":{"type":"Polygon","coordinates":[[[-76.4952708,44.2258361],[-76.495271,44.226018],[-76.495284,44.2260179],[-76.4952845,44.2260444],[-76.495285,44.226074],[-76.495225,44.2260744],[-76.495225,44.226083],[-76.4951983,44.2260832],[-76.495198,44.2260748],[-76.495037,44.2260755],[-76.4950373,44.2260834],[-76.4950123,44.2260835],[-76.495012,44.2260759],[-76.494947,44.226076],[-76.494947,44.2260264],[-76.494947,44.226017],[-76.494961,44.226017],[-76.49496,44.225836],[-76.4952708,44.2258361]]]}},{"type":"Feature","id":1020,"properties":{"osmId":"w5145344","name":"Nicol Hall","kind":"building","leisure":null,"building":"university","amenity":null,"levels":2,"clon":-76.49378469333334,"clat":44.22742243999999,"fid":1020},"geometry":{"type":"Polygon","coordinates":[[[-76.493839,44.227543],[-76.4937875,44.2275426],[-76.49372,44.227542],[-76.493719,44.227536],[-76.493628,44.227535],[-76.493628,44.227399],[-76.493657,44.227399],[-76.493659,44.227141],[-76.4937839,44.227142],[-76.493902,44.227143],[-76.4939,44.227399],[-76.493935,44.227401],[-76.493933,44.227536],[-76.49384,44.227535],[-76.493839,44.227543]]]}},{"type":"Feature","id":1021,"properties":{"osmId":"w5145346","name":"Jackson Hall","kind":"building","leisure":null,"building":"university","amenity":null,"levels":3,"clon":-76.49302118333334,"clat":44.22659815,"fid":1021},"geometry":{"type":"Polygon","coordinates":[[[-76.492815,44.226668],[-76.492816,44.226499],[-76.493226,44.226497],[-76.4932271,44.2265919],[-76.493228,44.226665],[-76.492815,44.226668]]]}},{"type":"Feature","id":1022,"properties":{"osmId":"w5145347","name":"Old Medical Building","kind":"building","leisure":null,"building":"university","amenity":null,"levels":3,"clon":-76.49299423846153,"clat":44.226302315384615,"fid":1022},"geometry":{"type":"Polygon","coordinates":[[[-76.4927588,44.2263921],[-76.4927556,44.2261944],[-76.4929628,44.2261927],[-76.4929635,44.2262309],[-76.4931206,44.2262296],[-76.4931214,44.2262775],[-76.4931568,44.2262772],[-76.4931575,44.2263224],[-76.4931196,44.2263227],[-76.4931201,44.2263534],[-76.4929645,44.2263547],[-76.4929651,44.2263904],[-76.4927588,44.2263921]]]}},{"type":"Feature","id":1023,"properties":{"osmId":"w5145348","name":"Humphrey Hall","kind":"building","leisure":null,"building":"university","amenity":null,"levels":2,"clon":-76.49208793809522,"clat":44.22684455238095,"fid":1023},"geometry":{"type":"Polygon","coordinates":[[[-76.492133,44.227206],[-76.4921327,44.2271885],[-76.492132,44.227138],[-76.492093,44.227138],[-76.492093,44.227158],[-76.492009,44.227159],[-76.492008,44.227111],[-76.491986,44.227111],[-76.49198,44.226583],[-76.491913,44.226584],[-76.491913,44.2265606],[-76.491913,44.226536],[-76.4919497,44.2265354],[-76.4921353,44.2265341],[-76.492192,44.226533],[-76.492211,44.226549],[-76.492217,44.226554],[-76.492218,44.226573],[-76.492239,44.226574],[-76.492246,44.227204],[-76.492133,44.227206]]]}},{"type":"Feature","id":1024,"properties":{"osmId":"w5145349","name":"Kathleen Ryan Hall","kind":"building","leisure":null,"building":"university","amenity":null,"levels":3,"clon":-76.49242461538462,"clat":44.22662353846154,"fid":1024},"geometry":{"type":"Polygon","coordinates":[[[-76.492298,44.226731],[-76.492298,44.226695],[-76.492262,44.226695],[-76.492259,44.226529],[-76.492362,44.226527],[-76.492361,44.226514],[-76.492504,44.226513],[-76.492504,44.226528],[-76.492608,44.226527],[-76.492611,44.226693],[-76.492577,44.226694],[-76.492578,44.226729],[-76.492298,44.226731]]]}},{"type":"Feature","id":1025,"properties":{"osmId":"w5145351","name":"Louise D. Acton Building","kind":"building","leisure":null,"building":"university","amenity":null,"levels":3,"clon":-76.49149245714285,"clat":44.22387144999999,"fid":1025},"geometry":{"type":"Polygon","coordinates":[[[-76.491435,44.224102],[-76.491388,44.223955],[-76.491374,44.223957],[-76.491352,44.22389],[-76.491393,44.223882],[-76.4913906,44.2238744],[-76.49137,44.223809],[-76.491352,44.223813],[-76.49127,44.223557],[-76.491397,44.2235363],[-76.4914082,44.2235344],[-76.491542,44.223512],[-76.491623,44.223767],[-76.491561,44.223777],[-76.491571,44.223803],[-76.491619,44.223796],[-76.4916244,44.2238113],[-76.49163,44.223827],[-76.491579,44.223836],[-76.491584,44.223853],[-76.491694,44.223835],[-76.491762,44.224049],[-76.4915309,44.2240865],[-76.4915373,44.2241066],[-76.4914586,44.2241195],[-76.4914557,44.2241104],[-76.4914521,44.2240992],[-76.491435,44.224102]]]}},{"type":"Feature","id":1026,"properties":{"osmId":"w5145356","name":"Cancer Research Institute","kind":"building","leisure":null,"building":"university","amenity":null,"levels":4,"clon":-76.49118371666665,"clat":44.22418378888888,"fid":1026},"geometry":{"type":"Polygon","coordinates":[[[-76.4909853,44.2238122],[-76.4911063,44.2237947],[-76.4911011,44.2237761],[-76.4912702,44.2237516],[-76.4913865,44.2241651],[-76.491221,44.224189],[-76.4912795,44.224397],[-76.4912604,44.2243997],[-76.4912691,44.2244308],[-76.4912882,44.2244281],[-76.4912912,44.2244389],[-76.4911997,44.2244521],[-76.4911961,44.2244395],[-76.4911718,44.224443],[-76.4911418,44.2243361],[-76.4910812,44.2241204],[-76.4910722,44.2241217],[-76.4909853,44.2238122]]]}},{"type":"Feature","id":1027,"properties":{"osmId":"w5145358","name":"Clark Hall","kind":"building","leisure":null,"building":"university","amenity":null,"levels":2,"clon":-76.49375943000001,"clat":44.22673426,"fid":1027},"geometry":{"type":"Polygon","coordinates":[[[-76.4937677,44.2268579],[-76.4937657,44.2268259],[-76.4936147,44.2268299],[-76.4936037,44.2266389],[-76.493717,44.2266355],[-76.4937367,44.2266349],[-76.4937357,44.2266069],[-76.4939357,44.2266019],[-76.4939497,44.2268529],[-76.4937677,44.2268579]]]}},{"type":"Feature","id":1028,"properties":{"osmId":"w5145360","name":"Carruthers Hall","kind":"building","leisure":null,"building":"university","amenity":null,"levels":3,"clon":-76.49368762222223,"clat":44.226364083333344,"fid":1028},"geometry":{"type":"Polygon","coordinates":[[[-76.49372,44.226479],[-76.49372,44.22646],[-76.493586,44.226465],[-76.493582,44.226404],[-76.493554,44.226405],[-76.493552,44.226374],[-76.493579,44.226373],[-76.493573,44.226262],[-76.493636,44.22626],[-76.493634,44.226236],[-76.4936952,44.2262345],[-76.493755,44.226233],[-76.493756,44.226261],[-76.493815,44.226259],[-76.493826,44.226446],[-76.493836,44.226446],[-76.493838,44.226477],[-76.49372,44.226479]]]}},{"type":"Feature","id":1029,"properties":{"osmId":"w5145366","name":"Cataraqui Building","kind":"building","leisure":null,"building":"university","amenity":null,"levels":2,"clon":-76.49090640526316,"clat":44.22556783157894,"fid":1029},"geometry":{"type":"Polygon","coordinates":[[[-76.490825,44.225706],[-76.490822,44.225666],[-76.490806,44.225667],[-76.490799,44.225583],[-76.490817,44.225582],[-76.4908153,44.225567],[-76.490813,44.225546],[-76.490797,44.225547],[-76.49079,44.225463],[-76.490805,44.225462],[-76.490801,44.225421],[-76.491053,44.22541],[-76.491056,44.225451],[-76.491074,44.22545],[-76.4910824,44.2255568],[-76.49109,44.225654],[-76.491074,44.225656],[-76.491077,44.225695],[-76.490825,44.225706]]]}},{"type":"Feature","id":1030,"properties":{"osmId":"w5145367","name":"Abramsky Hall","kind":"building","leisure":null,"building":"university","amenity":null,"levels":2,"clon":-76.49142550000002,"clat":44.225600772222215,"fid":1030},"geometry":{"type":"Polygon","coordinates":[[[-76.491256,44.225686],[-76.49124,44.225526],[-76.49137,44.225518],[-76.491366,44.22548],[-76.491545,44.22547],[-76.491552,44.225532],[-76.491562,44.225532],[-76.491563,44.225538],[-76.4915685,44.2255914],[-76.491571,44.225616],[-76.491557,44.225617],[-76.491563,44.225674],[-76.491384,44.225685],[-76.49138,44.225644],[-76.491318,44.225648],[-76.491321,44.225685],[-76.4912865,44.2256855],[-76.491256,44.225686]]]}},{"type":"Feature","id":1031,"properties":{"osmId":"w5145372","name":"Dupuis Hall","kind":"building","leisure":null,"building":"university","amenity":null,"levels":2,"clon":-76.49248630000001,"clat":44.22858238,"fid":1031},"geometry":{"type":"Polygon","coordinates":[[[-76.4928218,44.2283741],[-76.4929012,44.228379],[-76.4928902,44.228474],[-76.4928807,44.2285539],[-76.492841,44.2285514],[-76.4928386,44.2285719],[-76.4928607,44.2285733],[-76.4928339,44.2287985],[-76.4925348,44.2287802],[-76.4925356,44.2287732],[-76.4925041,44.2287713],[-76.4925033,44.2287786],[-76.4922592,44.2287642],[-76.4922606,44.2287519],[-76.4922202,44.2287495],[-76.4922308,44.2286561],[-76.4922711,44.2286584],[-76.4922725,44.2286458],[-76.4925456,44.2286615],[-76.4925497,44.2286252],[-76.4925092,44.2286233],[-76.4924692,44.2286247],[-76.4923129,44.2286357],[-76.492309,44.2286072],[-76.4924615,44.2285964],[-76.4925006,44.2285946],[-76.4925087,44.2285254],[-76.4922199,44.228508],[-76.492227,44.2284484],[-76.4922048,44.228447],[-76.4922102,44.2284014],[-76.4922326,44.2284027],[-76.4922372,44.228364],[-76.4922403,44.2283384],[-76.4928218,44.2283741]]]}},{"type":"Feature","id":1032,"properties":{"osmId":"w5145393","name":"Goodwin Hall","kind":"building","leisure":null,"building":"university","amenity":null,"levels":2,"clon":-76.49224165714286,"clat":44.227926599999996,"fid":1032},"geometry":{"type":"Polygon","coordinates":[[[-76.4920895,44.2280163],[-76.4919997,44.2280106],[-76.4920077,44.2279484],[-76.4920108,44.2279243],[-76.4920148,44.2279246],[-76.492026,44.227838],[-76.4920396,44.2278389],[-76.4920437,44.227807],[-76.492099,44.2278107],[-76.4921527,44.2278142],[-76.4921471,44.2278573],[-76.4921771,44.2278807],[-76.4921787,44.2278674],[-76.4926511,44.2278966],[-76.4926443,44.2279529],[-76.492677,44.2279549],[-76.4926712,44.2280014],[-76.4926381,44.2279992],[-76.4926296,44.2280668],[-76.4920876,44.2280321],[-76.4920895,44.2280163]]]}},{"type":"Feature","id":1033,"properties":{"osmId":"w5145394","name":"Walter Light Hall","kind":"building","leisure":null,"building":"university","amenity":null,"levels":2,"clon":-76.49171351428572,"clat":44.227970432142854,"fid":1033},"geometry":{"type":"Polygon","coordinates":[[[-76.4918235,44.228219],[-76.4916786,44.2282102],[-76.4916638,44.2281759],[-76.4916166,44.228173],[-76.4916291,44.2280672],[-76.491438,44.2280556],[-76.4914448,44.2279975],[-76.4914097,44.2279954],[-76.4914272,44.2278473],[-76.4914655,44.2278497],[-76.4914679,44.2278294],[-76.4914886,44.2278307],[-76.4914912,44.2278094],[-76.4917441,44.2278247],[-76.4917416,44.2278463],[-76.4917572,44.2278472],[-76.4917591,44.2278317],[-76.491811,44.2278349],[-76.4918885,44.2278395],[-76.4918842,44.2278763],[-76.4919275,44.2278789],[-76.4919229,44.2279188],[-76.4920108,44.2279243],[-76.4920077,44.2279484],[-76.4919202,44.2279432],[-76.4918914,44.2281907],[-76.4918442,44.2281879],[-76.4918235,44.228219]]]}},{"type":"Feature","id":1034,"properties":{"osmId":"w5145395","name":"Stirling Hall","kind":"building","leisure":null,"building":"university","amenity":null,"levels":3,"clon":-76.49773901851852,"clat":44.22462093148147,"fid":1034},"geometry":{"type":"Polygon","coordinates":[[[-76.4980958,44.2245617],[-76.4981206,44.2246179],[-76.4981177,44.2246431],[-76.4981232,44.2246852],[-76.4981166,44.2247262],[-76.498126,44.224733],[-76.498132,44.224736],[-76.498119,44.224767],[-76.498094,44.224794],[-76.4980644,44.224782],[-76.498015,44.224762],[-76.498007,44.224772],[-76.497965,44.224806],[-76.497927,44.224829],[-76.497877,44.22485],[-76.497824,44.224864],[-76.497769,44.224871],[-76.497711,44.224871],[-76.497656,44.224865],[-76.497602,44.22485],[-76.497554,44.224829],[-76.49751,44.224802],[-76.497474,44.224771],[-76.4974458,44.2247851],[-76.4974,44.224808],[-76.497374,44.224777],[-76.497361,44.224752],[-76.497323,44.224762],[-76.49731,44.224735],[-76.497296,44.224688],[-76.497291,44.22464],[-76.497297,44.224592],[-76.497312,44.224546],[-76.497331,44.224511],[-76.497363,44.224469],[-76.497403,44.224431],[-76.497451,44.224397],[-76.497506,44.22437],[-76.497565,44.224348],[-76.4976113,44.2243348],[-76.4976425,44.224331],[-76.4976323,44.2242946],[-76.4977052,44.224286],[-76.4977756,44.2242879],[-76.4978903,44.2243067],[-76.4978737,44.2243422],[-76.4978372,44.2244208],[-76.497868,44.224435],[-76.497918,44.224456],[-76.497968,44.224486],[-76.498003,44.224514],[-76.498017,44.224533],[-76.49804,44.2245414],[-76.4980958,44.2245617]]]}},{"type":"Feature","id":1035,"properties":{"osmId":"w5145398","name":"Harkness Hall","kind":"building","leisure":null,"building":"dormitory","amenity":null,"levels":3,"clon":-76.49766656249999,"clat":44.23008835416667,"fid":1035},"geometry":{"type":"Polygon","coordinates":[[[-76.497552,44.230261],[-76.497552,44.230252],[-76.497506,44.230254],[-76.497497,44.230122],[-76.4975,44.230122],[-76.497499,44.230102],[-76.497472,44.230103],[-76.497464,44.229983],[-76.497481,44.229983],[-76.497479,44.229958],[-76.497632,44.229952],[-76.497662,44.229952],[-76.497662,44.229961],[-76.497691,44.22996],[-76.49769,44.229955],[-76.497859,44.229949],[-76.49786,44.229959],[-76.497894,44.229958],[-76.497902,44.23009],[-76.497852,44.230093],[-76.497853,44.230113],[-76.497795,44.230116],[-76.497794,44.230096],[-76.49778,44.230096],[-76.497776,44.230049],[-76.49776,44.230049],[-76.49776,44.230056],[-76.497702,44.230059],[-76.497702,44.230034],[-76.497672,44.230035],[-76.497672,44.230039],[-76.497603,44.230041],[-76.497603,44.230051],[-76.497613,44.230051],[-76.497616,44.230096],[-76.497608,44.230096],[-76.497609,44.230116],[-76.497637,44.230115],[-76.49764,44.230159],[-76.497632,44.23016],[-76.497633,44.23017],[-76.497701,44.230168],[-76.497702,44.230176],[-76.497732,44.230175],[-76.497734,44.230218],[-76.497703,44.23022],[-76.497705,44.230257],[-76.497552,44.230261]]]}},{"type":"Feature","id":1036,"properties":{"osmId":"w5149945","name":"LaSalle Building","kind":"building","leisure":null,"building":"university","amenity":null,"levels":2,"clon":-76.4960124609756,"clat":44.22372126829267,"fid":1036},"geometry":{"type":"Polygon","coordinates":[[[-76.4959432,44.2238879],[-76.4959432,44.2238769],[-76.4958852,44.2238809],[-76.4958772,44.2238019],[-76.4958632,44.2238029],[-76.4958607,44.2237791],[-76.4958582,44.2237559],[-76.4958762,44.2237549],[-76.4958692,44.2236799],[-76.4958512,44.2236809],[-76.4958472,44.2236359],[-76.4958642,44.2236359],[-76.4958572,44.2235579],[-76.4959132,44.2235539],[-76.4959132,44.2235439],[-76.4959732,44.2235409],[-76.4959752,44.2235529],[-76.4960272,44.2235499],[-76.4960262,44.2235389],[-76.4960682,44.2235359],[-76.4960872,44.2235359],[-76.4960882,44.2235469],[-76.4961452,44.2235429],[-76.4961522,44.2236209],[-76.4961672,44.2236199],[-76.4961722,44.2236669],[-76.4961552,44.2236669],[-76.4961642,44.2237419],[-76.4961772,44.2237419],[-76.4961822,44.2237849],[-76.4961662,44.2237859],[-76.4961732,44.2238649],[-76.4961182,44.2238689],[-76.4961192,44.2238789],[-76.4960612,44.2238819],[-76.4960542,44.2238819],[-76.4960532,44.2238719],[-76.4960234,44.2238738],[-76.4960072,44.2238749],[-76.4960082,44.2238849],[-76.4959432,44.2238879]]]}},{"type":"Feature","id":1037,"properties":{"osmId":"w5150001","name":"Theological Hall","kind":"building","leisure":null,"building":"university","amenity":null,"levels":2,"clon":-76.49356799999998,"clat":44.22565908292683,"fid":1037},"geometry":{"type":"Polygon","coordinates":[[[-76.4931906,44.2258659],[-76.4931896,44.2256289],[-76.4932076,44.2256299],[-76.4932076,44.2255489],[-76.4933126,44.2255479],[-76.4933126,44.2255579],[-76.4933666,44.2255589],[-76.4934226,44.2255579],[-76.4934236,44.2255509],[-76.4934589,44.2255509],[-76.4934966,44.2255509],[-76.4934966,44.2255579],[-76.4936116,44.2255569],[-76.4936126,44.2255459],[-76.4937166,44.2255469],[-76.4937166,44.2255559],[-76.4937586,44.2255559],[-76.4937846,44.2255619],[-76.4938247,44.2255774],[-76.4938456,44.2255949],[-76.4938646,44.2256189],[-76.4938766,44.2256449],[-76.4938776,44.2256719],[-76.4938686,44.2256999],[-76.4938506,44.2257229],[-76.4938226,44.2257429],[-76.4937906,44.2257579],[-76.4937536,44.2257669],[-76.4937176,44.2257659],[-76.4937176,44.2257799],[-76.4936126,44.2257799],[-76.4936126,44.2257359],[-76.4935766,44.2257369],[-76.4935756,44.2256999],[-76.4934986,44.2256999],[-76.4934996,44.2257049],[-76.4934206,44.2257049],[-76.4934206,44.2257279],[-76.4933916,44.2257269],[-76.4933926,44.2258649],[-76.4931906,44.2258659]]]}},{"type":"Feature","id":1038,"properties":{"osmId":"w10905333","name":"Central Heating Plant - Queen's University & KGH","kind":"building","leisure":null,"building":"university","amenity":null,"levels":2,"clon":-76.49418271764705,"clat":44.22260510588234,"fid":1038},"geometry":{"type":"Polygon","coordinates":[[[-76.4937006,44.2228379],[-76.4936976,44.2227239],[-76.4936906,44.2227239],[-76.4936906,44.2227189],[-76.4936566,44.2227189],[-76.4936566,44.2227019],[-76.4936746,44.2227019],[-76.4936703,44.2224877],[-76.4936916,44.222484],[-76.4941934,44.2224714],[-76.4941935,44.2224781],[-76.4942602,44.2224775],[-76.4944037,44.2225],[-76.4944209,44.2224916],[-76.494441,44.2224878],[-76.4944617,44.2224891],[-76.4945086,44.2224749],[-76.4946116,44.2224739],[-76.4946186,44.2227379],[-76.4945166,44.2227389],[-76.4945116,44.2225629],[-76.4944905,44.222561],[-76.4944747,44.2225697],[-76.4944557,44.2225743],[-76.4944358,44.2225742],[-76.4944169,44.2225695],[-76.4944012,44.2225607],[-76.4943903,44.2225487],[-76.4942365,44.2225272],[-76.4941959,44.2225287],[-76.4942026,44.2227059],[-76.4942686,44.2227039],[-76.4942726,44.2228289],[-76.4937006,44.2228379]]]}},{"type":"Feature","id":1039,"properties":{"osmId":"w27797339","name":"Kingston Hall","kind":"building","leisure":null,"building":"university","amenity":null,"levels":2,"clon":-76.49491910937499,"clat":44.225701212500006,"fid":1039},"geometry":{"type":"Polygon","coordinates":[[[-76.49496,44.225836],[-76.494936,44.225836],[-76.494935,44.22576],[-76.494657,44.225761],[-76.494658,44.225818],[-76.494477,44.225818],[-76.494477,44.225674],[-76.494485,44.225674],[-76.494484,44.22564],[-76.494497,44.225628],[-76.494516,44.225628],[-76.494516,44.225536],[-76.494655,44.225535],[-76.494655,44.225554],[-76.4948284,44.2255535],[-76.49499,44.225553],[-76.49499,44.225535],[-76.495131,44.225535],[-76.495131,44.225672],[-76.495156,44.225672],[-76.495178,44.225689],[-76.495178,44.225739],[-76.495159,44.225749],[-76.495147,44.225749],[-76.495147,44.22576],[-76.4952007,44.225759],[-76.495201,44.2257442],[-76.4952829,44.2257451],[-76.4952817,44.225807],[-76.495271,44.2258069],[-76.4952708,44.2258361],[-76.49496,44.225836]]]}},{"type":"Feature","id":1040,"properties":{"osmId":"w28160908","name":"Grey House","kind":"building","leisure":null,"building":"university","amenity":null,"levels":2,"clon":-76.49768994117647,"clat":44.225226588235294,"fid":1040},"geometry":{"type":"Polygon","coordinates":[[[-76.497632,44.225304],[-76.497629,44.225282],[-76.497614,44.225283],[-76.497601,44.225173],[-76.497637,44.225171],[-76.497636,44.225159],[-76.497686,44.225157],[-76.497687,44.225168],[-76.49774,44.225165],[-76.497741,44.225173],[-76.497766,44.225172],[-76.497776,44.225246],[-76.497768,44.225246],[-76.497771,44.225273],[-76.497705,44.225276],[-76.497708,44.2253],[-76.497632,44.225304]]]}},{"type":"Feature","id":1041,"properties":{"osmId":"w42392538","name":"Botterell Hall","kind":"building","leisure":null,"building":"university","amenity":null,"levels":9,"clon":-76.49153076176471,"clat":44.2244274647059,"fid":1041},"geometry":{"type":"Polygon","coordinates":[[[-76.4913644,44.2246789],[-76.4913373,44.2245822],[-76.4913229,44.2245842],[-76.4913135,44.2245503],[-76.4913193,44.2245494],[-76.491318,44.2245448],[-76.4912048,44.2245611],[-76.4911718,44.224443],[-76.4911961,44.2244395],[-76.4911997,44.2244521],[-76.4912912,44.2244389],[-76.4912882,44.2244281],[-76.4912691,44.2244308],[-76.4912604,44.2243997],[-76.4912795,44.224397],[-76.491221,44.224189],[-76.4913865,44.2241651],[-76.49141,44.2241619],[-76.4917474,44.2241132],[-76.4917668,44.224182],[-76.4918057,44.2243205],[-76.4918245,44.2243178],[-76.4918334,44.2243495],[-76.4918139,44.2243523],[-76.4918248,44.2243906],[-76.4918512,44.2243868],[-76.4918656,44.2244383],[-76.4918329,44.224443],[-76.4918422,44.2244761],[-76.4918897,44.2244695],[-76.4919,44.2245037],[-76.4918516,44.2245105],[-76.4918781,44.2246051],[-76.4913644,44.2246789]]]}},{"type":"Feature","id":1042,"properties":{"osmId":"w42392573","name":"University Club","kind":"building","leisure":null,"building":"university","amenity":null,"levels":2,"clon":-76.49656942499999,"clat":44.223417825000006,"fid":1042},"geometry":{"type":"Polygon","coordinates":[[[-76.4965574,44.2236268],[-76.4965524,44.2236158],[-76.4965224,44.2236238],[-76.4964014,44.2233438],[-76.4964374,44.2233358],[-76.4964214,44.2232968],[-76.4965039,44.2232783],[-76.4965284,44.2232728],[-76.4965334,44.2232678],[-76.4965494,44.2232618],[-76.4965644,44.2232618],[-76.4965834,44.2232688],[-76.4966024,44.2232648],[-76.4966394,44.2233508],[-76.4966334,44.2233518],[-76.4966954,44.2234978],[-76.4967404,44.2235998],[-76.4966854,44.2236108],[-76.4966794,44.2235998],[-76.4965574,44.2236268]]]}},{"type":"Feature","id":1043,"properties":{"osmId":"w42393052","name":"Snodgrass Arboretum","kind":"leisure","leisure":"garden","building":null,"amenity":null,"levels":2,"clon":-76.49266037254901,"clat":44.22580029803921,"fid":1043},"geometry":{"type":"Polygon","coordinates":[[[-76.4937142,44.2245899],[-76.4937743,44.2247949],[-76.4938813,44.2249111],[-76.4939147,44.2254225],[-76.4939055,44.2254549],[-76.4938789,44.2254801],[-76.4937898,44.2255086],[-76.4931407,44.2255069],[-76.4931353,44.2259485],[-76.4931332,44.2259676],[-76.4931238,44.2259802],[-76.4928384,44.2261461],[-76.4928027,44.2261546],[-76.4927883,44.2261331],[-76.4927868,44.2260392],[-76.4928032,44.226039],[-76.4928019,44.2259827],[-76.4927288,44.2259841],[-76.4927282,44.2259691],[-76.4925985,44.2259706],[-76.4925969,44.2259409],[-76.4925891,44.2259201],[-76.4925751,44.2259055],[-76.4925539,44.2258892],[-76.492526,44.2258787],[-76.4924916,44.2258748],[-76.4924914,44.2258664],[-76.4924089,44.2258676],[-76.4924091,44.225877],[-76.4923759,44.2258795],[-76.4923544,44.2258883],[-76.4923226,44.2259058],[-76.4923065,44.2259259],[-76.4923009,44.2259547],[-76.4922471,44.2259539],[-76.492247,44.2258884],[-76.4921371,44.2258892],[-76.4921373,44.2259856],[-76.4921062,44.2259858],[-76.4921068,44.2260347],[-76.492134,44.2260345],[-76.4921349,44.2260986],[-76.4922005,44.2260981],[-76.4922015,44.2261713],[-76.4921979,44.2261825],[-76.4921868,44.2261911],[-76.4921684,44.2261938],[-76.4918054,44.2261954],[-76.4916822,44.2248944],[-76.4917009,44.2248699],[-76.4937142,44.2245899]]]}},{"type":"Feature","id":1044,"properties":{"osmId":"w50497721","name":"Physical Plant Services Shed","kind":"building","leisure":null,"building":"garage","amenity":null,"levels":2,"clon":-76.4974474,"clat":44.224177700000006,"fid":1044},"geometry":{"type":"Polygon","coordinates":[[[-76.4973892,44.2242117],[-76.4973772,44.2241397],[-76.4975352,44.2241267],[-76.4975462,44.2241987],[-76.4973892,44.2242117]]]}},{"type":"Feature","id":1045,"properties":{"osmId":"w50501629","name":"Queen's School of Medicine","kind":"building","leisure":null,"building":"university","amenity":null,"levels":4,"clon":-76.49117930000001,"clat":44.22537071363636,"fid":1045},"geometry":{"type":"Polygon","coordinates":[[[-76.491177,44.225557],[-76.491174,44.225531],[-76.491081,44.225536],[-76.491073,44.225381],[-76.4909378,44.225386],[-76.4909228,44.2252251],[-76.490921,44.2252119],[-76.490919,44.225199],[-76.4909537,44.2251965],[-76.490956,44.225225],[-76.491223,44.225212],[-76.491198,44.224946],[-76.491503,44.224905],[-76.4915441,44.2254577],[-76.491545,44.22547],[-76.491366,44.22548],[-76.49137,44.225518],[-76.49124,44.225526],[-76.491228,44.225526],[-76.491231,44.225554],[-76.4912042,44.2255555],[-76.491177,44.225557]]]}},{"type":"Feature","id":1046,"properties":{"osmId":"w51049173","name":"Kinesiology Building","kind":"building","leisure":null,"building":"yes","amenity":null,"levels":4,"clon":-76.49336264,"clat":44.22872501,"fid":1046},"geometry":{"type":"Polygon","coordinates":[[[-76.493544,44.228858],[-76.493177,44.228838],[-76.493182,44.228794],[-76.493167,44.228793],[-76.4931684,44.2287801],[-76.493206,44.228426],[-76.493555,44.228447],[-76.493525,44.228727],[-76.493558,44.228729],[-76.493544,44.228858]]]}},{"type":"Feature","id":1047,"properties":{"osmId":"w66180585","name":"The Grad Club","kind":"building","leisure":null,"building":"detached","amenity":"restaurant","levels":2,"clon":-76.49119372727274,"clat":44.22781272727273,"fid":1047},"geometry":{"type":"Polygon","coordinates":[[[-76.491212,44.227886],[-76.491013,44.227876],[-76.491029,44.22771],[-76.491171,44.227717],[-76.491167,44.22775],[-76.491298,44.227756],[-76.491291,44.227825],[-76.491263,44.227824],[-76.49126,44.227856],[-76.491215,44.227854],[-76.491212,44.227886]]]}},{"type":"Feature","id":1048,"properties":{"osmId":"w66181660","name":"Wellington Cottages","kind":"building","leisure":null,"building":"yes","amenity":null,"levels":2,"clon":-76.49110541666667,"clat":44.227095583333345,"fid":1048},"geometry":{"type":"Polygon","coordinates":[[[-76.49098,44.22715],[-76.490973,44.227055],[-76.491053,44.227051],[-76.491053,44.227047],[-76.491168,44.227042],[-76.491171,44.227071],[-76.491207,44.22707],[-76.491211,44.22711],[-76.491173,44.227113],[-76.491175,44.227143],[-76.491121,44.227145],[-76.49098,44.22715]]]}},{"type":"Feature","id":1049,"properties":{"osmId":"w66181668","name":"Wellington Cottages","kind":"building","leisure":null,"building":"yes","amenity":null,"levels":2,"clon":-76.49108022222222,"clat":44.2269971111111,"fid":1049},"geometry":{"type":"Polygon","coordinates":[[[-76.49105,44.227031],[-76.49105,44.227026],[-76.49097,44.22703],[-76.49096,44.226935],[-76.491153,44.226924],[-76.491157,44.226952],[-76.491166,44.227021],[-76.491166,44.227024],[-76.49105,44.227031]]]}},{"type":"Feature","id":1050,"properties":{"osmId":"w141901025","name":"Summerhill","kind":"building","leisure":null,"building":"university","amenity":null,"levels":2,"clon":-76.49243581730771,"clat":44.22599824615385,"fid":1050},"geometry":{"type":"Polygon","coordinates":[[[-76.4922015,44.2261713],[-76.4922005,44.2260981],[-76.4921349,44.2260986],[-76.492134,44.2260345],[-76.4921068,44.2260347],[-76.4921062,44.2259858],[-76.4921373,44.2259856],[-76.4921375,44.2260015],[-76.4922247,44.2260004],[-76.4922465,44.2260009],[-76.4923235,44.2260004],[-76.4923229,44.2259451],[-76.4923344,44.225945],[-76.4923343,44.2259325],[-76.4923493,44.2259135],[-76.4923723,44.2258995],[-76.4923993,44.2258925],[-76.4923991,44.2258854],[-76.4924094,44.2258852],[-76.4924091,44.225877],[-76.4924089,44.2258676],[-76.4924914,44.2258664],[-76.4924916,44.2258748],[-76.4924919,44.2258847],[-76.4925021,44.2258846],[-76.4925023,44.2258905],[-76.4925297,44.2258961],[-76.4925523,44.2259102],[-76.4925645,44.2259305],[-76.4925649,44.2259445],[-76.4925757,44.2259444],[-76.4925772,44.2260031],[-76.4927173,44.2260013],[-76.4927781,44.2260005],[-76.4927778,44.2259873],[-76.4927998,44.225987],[-76.4928007,44.2260299],[-76.4927702,44.2260303],[-76.4927726,44.2261455],[-76.4926565,44.2261467],[-76.4926554,44.2260888],[-76.4925665,44.2260896],[-76.4925659,44.2260541],[-76.4924886,44.2260548],[-76.4924894,44.2261004],[-76.4924001,44.2261012],[-76.4923996,44.2260359],[-76.4923391,44.2260361],[-76.4923395,44.2260961],[-76.4923034,44.2260965],[-76.4923045,44.2261706],[-76.4922015,44.2261713]]]}},{"type":"Feature","id":1051,"properties":{"osmId":"w143778637","name":"Beamish-Munro Hall","kind":"building","leisure":null,"building":"university","amenity":null,"levels":4,"clon":-76.49235536764705,"clat":44.22818262647058,"fid":1051},"geometry":{"type":"Polygon","coordinates":[[[-76.4922403,44.2283384],[-76.4922372,44.228364],[-76.4920905,44.2283556],[-76.4920902,44.2283578],[-76.491966,44.2283506],[-76.4919665,44.2283464],[-76.4919128,44.2283432],[-76.4919092,44.2283744],[-76.491867,44.2283718],[-76.4918809,44.2282532],[-76.491916,44.2282554],[-76.4919238,44.2281891],[-76.4919866,44.2281929],[-76.4919999,44.2280802],[-76.4919912,44.2280796],[-76.4919997,44.2280106],[-76.4920895,44.2280163],[-76.4920876,44.2280321],[-76.4926296,44.2280668],[-76.4926381,44.2279992],[-76.4926712,44.2280014],[-76.492677,44.2279549],[-76.4926856,44.2278948],[-76.4928261,44.2279051],[-76.4928349,44.2279809],[-76.4928215,44.2280746],[-76.4928397,44.2280758],[-76.4928634,44.2280773],[-76.4928468,44.2282263],[-76.4928604,44.2282271],[-76.4928467,44.2283511],[-76.4928245,44.2283499],[-76.4928218,44.2283741],[-76.4922403,44.2283384]]]}},{"type":"Feature","id":1052,"properties":{"osmId":"w143778687","name":"Gordon Hall","kind":"building","leisure":null,"building":"university","amenity":null,"levels":2,"clon":-76.49445915172416,"clat":44.227479396551736,"fid":1052},"geometry":{"type":"Polygon","coordinates":[[[-76.494487,44.227584],[-76.4944574,44.2275835],[-76.494424,44.227583],[-76.494425,44.22758],[-76.494363,44.22758],[-76.494363,44.227568],[-76.494181,44.227567],[-76.494181,44.227524],[-76.494172,44.227524],[-76.494173,44.227463],[-76.494178,44.227463],[-76.49418,44.227418],[-76.494361,44.22742],[-76.494362,44.22733],[-76.494348,44.227331],[-76.494351,44.227097],[-76.494553,44.227099],[-76.49455,44.227417],[-76.494732,44.227417],[-76.494732,44.227459],[-76.494737,44.227459],[-76.494737,44.227515],[-76.494736,44.227523],[-76.494732,44.227523],[-76.494732,44.227567],[-76.494547,44.227566],[-76.494547,44.227579],[-76.494487,44.227579],[-76.494487,44.227584]]]}},{"type":"Feature","id":1053,"properties":{"osmId":"w158304865","name":"Ban Righ Hall","kind":"building","leisure":null,"building":"dormitory","amenity":null,"levels":2,"clon":-76.49621703333334,"clat":44.22462413636362,"fid":1053},"geometry":{"type":"Polygon","coordinates":[[[-76.495912,44.224494],[-76.4959541,44.2244834],[-76.4960143,44.2244866],[-76.496047,44.2244872],[-76.496048,44.2244737],[-76.4962953,44.2244754],[-76.4962963,44.2244684],[-76.4962978,44.2244578],[-76.4964623,44.2244536],[-76.4964577,44.2244767],[-76.4965337,44.2244768],[-76.496606,44.2244768],[-76.4966061,44.2244861],[-76.496686,44.2244835],[-76.4966854,44.2245555],[-76.496634,44.224558],[-76.496635,44.224835],[-76.496432,44.224835],[-76.496431,44.224843],[-76.4964131,44.224843],[-76.496379,44.224843],[-76.496379,44.224832],[-76.496007,44.224832],[-76.496007,44.224855],[-76.495955,44.224855],[-76.495955,44.224824],[-76.495831,44.224824],[-76.495831,44.224723],[-76.495817,44.224723],[-76.495816,44.224563],[-76.495913,44.224563],[-76.495913,44.224516],[-76.495912,44.224494]]]}},{"type":"Feature","id":1054,"properties":{"osmId":"w158313821","name":"Stewart-Pollock Wing","kind":"building","leisure":null,"building":"university","amenity":null,"levels":5,"clon":-76.49434595454545,"clat":44.226746863636365,"fid":1054},"geometry":{"type":"Polygon","coordinates":[[[-76.4943499,44.2266315],[-76.4944536,44.2266316],[-76.4944536,44.2268354],[-76.4943996,44.2268354],[-76.4943996,44.2268587],[-76.4943214,44.2268587],[-76.4943213,44.2268348],[-76.4942343,44.2268348],[-76.4942344,44.2266315],[-76.4942879,44.2266316],[-76.4943499,44.2266315]]]}},{"type":"Feature","id":1055,"properties":{"osmId":"w158313822","name":"Jemmet Wing","kind":"building","leisure":null,"building":"university","amenity":null,"levels":4,"clon":-76.49424866086956,"clat":44.22645400434781,"fid":1055},"geometry":{"type":"Polygon","coordinates":[[[-76.4943494,44.2265344],[-76.4942874,44.2265346],[-76.494197,44.226535],[-76.494197,44.226529],[-76.493917,44.226529],[-76.493917,44.226496],[-76.493877,44.226496],[-76.493878,44.226369],[-76.493916,44.226368],[-76.493917,44.226371],[-76.494211,44.226371],[-76.494211,44.226376],[-76.494257,44.226377],[-76.494322,44.2263767],[-76.49443,44.226376],[-76.49443,44.22637],[-76.494535,44.22637],[-76.494535,44.226468],[-76.49455,44.226468],[-76.49455,44.22653],[-76.494443,44.22653],[-76.494443,44.226533],[-76.4943494,44.2265344]]]}},{"type":"Feature","id":1056,"properties":{"osmId":"w160034445","name":"Miller Hall","kind":"building","leisure":null,"building":"university","amenity":null,"levels":4,"clon":-76.49276936666666,"clat":44.22735764444443,"fid":1056},"geometry":{"type":"Polygon","coordinates":[[[-76.4930088,44.227329],[-76.4930069,44.2273466],[-76.493056,44.2273496],[-76.493176,44.227357],[-76.493165,44.227451],[-76.492987,44.227441],[-76.492983,44.227476],[-76.492483,44.227446],[-76.492488,44.227407],[-76.492311,44.227396],[-76.492323,44.227302],[-76.492425,44.227309],[-76.492429,44.227283],[-76.4925039,44.2272889],[-76.492505,44.227281],[-76.4929952,44.2273172],[-76.492994,44.2273283],[-76.4930088,44.227329]]]}},{"type":"Feature","id":1057,"properties":{"osmId":"w197081390","name":null,"kind":"building","leisure":null,"building":"dormitory","amenity":null,"levels":11,"clon":-76.49136172345679,"clat":44.223131267901245,"fid":1057},"geometry":{"type":"Polygon","coordinates":[[[-76.491276,44.223104],[-76.4912878,44.2230956],[-76.4912611,44.2230738],[-76.4912751,44.2230643],[-76.4912519,44.2230444],[-76.4912659,44.223034],[-76.4912418,44.2230152],[-76.4912572,44.2230038],[-76.4912352,44.2229858],[-76.4912503,44.2229739],[-76.491234,44.222959],[-76.49123,44.222955],[-76.491246,44.222948],[-76.491228,44.22293],[-76.491215,44.222923],[-76.491228,44.222915],[-76.491232,44.222901],[-76.49126,44.222909],[-76.491289,44.22291],[-76.491317,44.222903],[-76.491341,44.22289],[-76.491348,44.222882],[-76.491358,44.222892],[-76.491374,44.222898],[-76.491363,44.222918],[-76.491361,44.222928],[-76.49138,44.222933],[-76.491371,44.222956],[-76.491392,44.22296],[-76.491381,44.222987],[-76.491401,44.222991],[-76.491393,44.223015],[-76.491412,44.22302],[-76.491402,44.223046],[-76.491421,44.22305],[-76.491412,44.223076],[-76.491431,44.22308],[-76.49142,44.223106],[-76.491439,44.22311],[-76.49143,44.223135],[-76.491449,44.223141],[-76.491439,44.223166],[-76.491457,44.22317],[-76.49145,44.223195],[-76.491469,44.223199],[-76.491458,44.223225],[-76.491477,44.223228],[-76.491468,44.223255],[-76.491488,44.223259],[-76.49148,44.223284],[-76.491496,44.223289],[-76.491487,44.223314],[-76.491506,44.223319],[-76.491498,44.223343],[-76.491514,44.22335],[-76.491494,44.223397],[-76.49148,44.223403],[-76.491446,44.223405],[-76.491435,44.22341],[-76.491417,44.223412],[-76.4914,44.223407],[-76.4913625,44.2233716],[-76.491374,44.2233637],[-76.4913628,44.2233536],[-76.491351,44.223343],[-76.491365,44.223334],[-76.491343,44.223313],[-76.491356,44.223304],[-76.491332,44.223283],[-76.491346,44.223275],[-76.491324,44.223253],[-76.491337,44.223245],[-76.491313,44.223224],[-76.491328,44.223215],[-76.491305,44.223195],[-76.491317,44.223186],[-76.491294,44.223163],[-76.491308,44.223155],[-76.491287,44.223135],[-76.491299,44.223125],[-76.491276,44.223104]]]}},{"type":"Feature","id":1058,"properties":{"osmId":"w214583119","name":"Campus Bookstore (underground entrance)","kind":"building","leisure":null,"building":"university","amenity":null,"levels":2,"clon":-76.49372791666667,"clat":44.22696009999999,"fid":1058},"geometry":{"type":"Polygon","coordinates":[[[-76.4936709,44.2269791],[-76.4936698,44.2269587],[-76.4936686,44.2269371],[-76.4938425,44.2269323],[-76.4938448,44.2269743],[-76.4936709,44.2269791]]]}},{"type":"Feature","id":1059,"properties":{"osmId":"w233458038","name":"Nixon Field","kind":"leisure","leisure":"pitch","building":null,"amenity":null,"levels":2,"clon":-76.49480327500001,"clat":44.2250597125,"fid":1059},"geometry":{"type":"Polygon","coordinates":[[[-76.4953301,44.2246708],[-76.4938915,44.2247167],[-76.4939111,44.2249905],[-76.4939319,44.2254002],[-76.4953042,44.2253585],[-76.495356,44.2253455],[-76.4953713,44.2253247],[-76.4953301,44.2246708]]]}},{"type":"Feature","id":1060,"properties":{"osmId":"w321302031","name":"David C. Smith House","kind":"building","leisure":null,"building":"dormitory","amenity":null,"levels":5,"clon":-76.49886870909091,"clat":44.22351011818183,"fid":1060},"geometry":{"type":"Polygon","coordinates":[[[-76.498443,44.22369],[-76.498433,44.223623],[-76.498445,44.223622],[-76.498423,44.223484],[-76.498412,44.223485],[-76.498407,44.223458],[-76.498416,44.223458],[-76.498407,44.223404],[-76.498563,44.223391],[-76.498589,44.223558],[-76.498789,44.223542],[-76.498782,44.223498],[-76.498888,44.223489],[-76.498892,44.2235],[-76.499197,44.223473],[-76.499176,44.223231],[-76.499389,44.223222],[-76.499393,44.223278],[-76.499405,44.223277],[-76.499407,44.223303],[-76.499396,44.223304],[-76.499415,44.223533],[-76.499432,44.223532],[-76.499438,44.2236],[-76.4992408,44.2236162],[-76.4989666,44.2236387],[-76.49889,44.223645],[-76.498889,44.223639],[-76.498834,44.223643],[-76.498834,44.223649],[-76.498516,44.223674],[-76.498517,44.223684],[-76.498443,44.22369]]]}},{"type":"Feature","id":1061,"properties":{"osmId":"w321302032","name":"Brant House","kind":"building","leisure":null,"building":"yes","amenity":null,"levels":9,"clon":-76.50003312142857,"clat":44.22354147857144,"fid":1061},"geometry":{"type":"Polygon","coordinates":[[[-76.4997281,44.2236424],[-76.4997217,44.2235733],[-76.4997342,44.2235727],[-76.4997274,44.2234975],[-76.4997251,44.2234724],[-76.5003382,44.2234441],[-76.5003372,44.2234331],[-76.5004458,44.2234282],[-76.5004529,44.2235051],[-76.5004369,44.2235059],[-76.500446,44.2235973],[-76.4998206,44.2236283],[-76.4998215,44.223638],[-76.4997281,44.2236424]]]}},{"type":"Feature","id":1062,"properties":{"osmId":"w321302036","name":"Ban Righ Centre","kind":"building","leisure":null,"building":"university","amenity":null,"levels":2,"clon":-76.4968430909091,"clat":44.22475972727272,"fid":1062},"geometry":{"type":"Polygon","coordinates":[[[-76.496837,44.224815],[-76.496834,44.224791],[-76.496759,44.224796],[-76.496742,44.224678],[-76.496798,44.224673],[-76.496804,44.224707],[-76.496934,44.224697],[-76.496946,44.224785],[-76.49689,44.224789],[-76.496893,44.224811],[-76.496837,44.224815]]]}},{"type":"Feature","id":1063,"properties":{"osmId":"w321302037","name":"Yellow House","kind":"building","leisure":null,"building":"university","amenity":null,"levels":2,"clon":-76.495771525,"clat":44.22388385833333,"fid":1063},"geometry":{"type":"Polygon","coordinates":[[[-76.495706,44.223949],[-76.4957,44.223882],[-76.49571,44.223882],[-76.495707,44.223829],[-76.495793,44.223826],[-76.495791,44.223822],[-76.495827,44.223822],[-76.49583,44.223878],[-76.495849,44.223877],[-76.495853,44.223944],[-76.4957863,44.2239463],[-76.495706,44.223949]]]}},{"type":"Feature","id":1064,"properties":{"osmId":"w321302038","name":"Craine Building","kind":"building","leisure":null,"building":"university","amenity":null,"levels":4,"clon":-76.49200995,"clat":44.22642333333334,"fid":1064},"geometry":{"type":"Polygon","coordinates":[[[-76.4919497,44.2265354],[-76.4919478,44.2264064],[-76.4919458,44.226265],[-76.4921314,44.2262637],[-76.4921353,44.2265341],[-76.4919497,44.2265354]]]}},{"type":"Feature","id":1065,"properties":{"osmId":"w657108715","name":"Macklem House","kind":"building","leisure":null,"building":"university","amenity":null,"levels":2,"clon":-76.49065423243245,"clat":44.223035905405396,"fid":1065},"geometry":{"type":"Polygon","coordinates":[[[-76.49058,44.223168],[-76.490579,44.223151],[-76.490554,44.223152],[-76.490546,44.223091],[-76.490508,44.223093],[-76.490507,44.223085],[-76.490493,44.223086],[-76.4904906,44.2230635],[-76.490485,44.223011],[-76.490498,44.22301],[-76.490496,44.223002],[-76.490539,44.222999],[-76.490532,44.222942],[-76.49057,44.22291],[-76.490641,44.222906],[-76.490663,44.222919],[-76.490707,44.222917],[-76.490723,44.222912],[-76.490743,44.222911],[-76.490759,44.222918],[-76.490768,44.222931],[-76.490769,44.222945],[-76.490759,44.222957],[-76.490742,44.222963],[-76.490748,44.22302],[-76.490762,44.22303],[-76.49077,44.223045],[-76.490769,44.223059],[-76.490757,44.223075],[-76.490758,44.223081],[-76.490779,44.22308],[-76.490785,44.223137],[-76.490749,44.223139],[-76.490749,44.223143],[-76.490674,44.223147],[-76.490675,44.223162],[-76.49058,44.223168]]]}},{"type":"Feature","id":1066,"properties":{"osmId":"w657108721","name":"Centre for Applied Urological Research","kind":"building","leisure":null,"building":"yes","amenity":"clinic","levels":2,"clon":-76.49073423076923,"clat":44.22404084615384,"fid":1066},"geometry":{"type":"Polygon","coordinates":[[[-76.490628,44.224097],[-76.490623,44.224063],[-76.490596,44.224066],[-76.490586,44.22398],[-76.490782,44.223969],[-76.490784,44.223986],[-76.490851,44.223981],[-76.490858,44.224029],[-76.49081,44.224031],[-76.490815,44.224072],[-76.490791,44.224073],[-76.490793,44.224087],[-76.490628,44.224097]]]}},{"type":"Feature","id":1067,"properties":{"osmId":"w657108724","name":null,"kind":"building","leisure":null,"building":"university","amenity":null,"levels":2,"clon":-76.49081526666666,"clat":44.22472993333334,"fid":1067},"geometry":{"type":"Polygon","coordinates":[[[-76.490801,44.22478],[-76.490801,44.224768],[-76.490744,44.22477],[-76.49074,44.224742],[-76.490714,44.224743],[-76.490709,44.224683],[-76.490786,44.22468],[-76.490786,44.224662],[-76.490878,44.224658],[-76.49088,44.224689],[-76.490909,44.224688],[-76.490915,44.224764],[-76.490882,44.224765],[-76.490883,44.224777],[-76.490801,44.22478]]]}},{"type":"Feature","id":1068,"properties":{"osmId":"w657108725","name":null,"kind":"building","leisure":null,"building":"university","amenity":null,"levels":2,"clon":-76.49084039230769,"clat":44.225315046153845,"fid":1068},"geometry":{"type":"Polygon","coordinates":[[[-76.4907965,44.2253954],[-76.4907963,44.2253916],[-76.4907766,44.2253923],[-76.4907691,44.2252891],[-76.4907856,44.2252885],[-76.4907824,44.2252439],[-76.4908506,44.2252413],[-76.4908497,44.2252279],[-76.4909228,44.2252251],[-76.4909231,44.225229],[-76.4909378,44.225386],[-76.4909381,44.2253901],[-76.4907965,44.2253954]]]}},{"type":"Feature","id":1069,"properties":{"osmId":"w657108726","name":"Abrhamsky House","kind":"building","leisure":null,"building":"university","amenity":null,"levels":2,"clon":-76.49092785666667,"clat":44.225113316666665,"fid":1069},"geometry":{"type":"Polygon","coordinates":[[[-76.49091,44.225199],[-76.490907,44.225178],[-76.490783,44.225186],[-76.490777,44.225135],[-76.49078,44.225134],[-76.490777,44.225108],[-76.490758,44.225109],[-76.490752,44.225064],[-76.49077,44.225063],[-76.49077,44.225059],[-76.49078,44.225058],[-76.490776,44.225032],[-76.490938,44.225022],[-76.490941,44.225042],[-76.490959,44.225041],[-76.490961,44.225058],[-76.490976,44.225057],[-76.490979,44.225078],[-76.491093,44.22507],[-76.491094,44.225082],[-76.491148,44.225077],[-76.491157,44.225141],[-76.491094,44.225146],[-76.491095,44.225162],[-76.49102,44.225166],[-76.49102,44.22517],[-76.490977,44.225172],[-76.49098,44.225195],[-76.4909537,44.2251965],[-76.49091,44.225199]]]}},{"type":"Feature","id":1070,"properties":{"osmId":"w657108772","name":null,"kind":"building","leisure":null,"building":"university","amenity":null,"levels":2,"clon":-76.49080115263159,"clat":44.22591538421053,"fid":1070},"geometry":{"type":"Polygon","coordinates":[[[-76.490781,44.226004],[-76.490781,44.226002],[-76.490765,44.226004],[-76.490761,44.225952],[-76.490766,44.225952],[-76.4907655,44.2259454],[-76.490764,44.225926],[-76.490773,44.225925],[-76.490767,44.225864],[-76.490756,44.225864],[-76.4907554,44.2258589],[-76.490754,44.225846],[-76.490767,44.225845],[-76.490767,44.225841],[-76.490953,44.225833],[-76.490955,44.225862],[-76.4909,44.225865],[-76.49091,44.225999],[-76.490781,44.226004]]]}},{"type":"Feature","id":1071,"properties":{"osmId":"w657108797","name":null,"kind":"building","leisure":null,"building":"university","amenity":null,"levels":2,"clon":-76.49643779166666,"clat":44.22380154166666,"fid":1071},"geometry":{"type":"Polygon","coordinates":[[[-76.496329,44.223872],[-76.496327,44.223861],[-76.496298,44.223862],[-76.496294,44.223805],[-76.496264,44.223805],[-76.496259,44.223738],[-76.496395,44.223733],[-76.496397,44.223745],[-76.496456,44.223742],[-76.496455,44.223737],[-76.496535,44.223734],[-76.496532,44.223687],[-76.496596,44.223685],[-76.496605,44.223812],[-76.496591,44.223812],[-76.496592,44.223837],[-76.496537,44.223839],[-76.496518,44.223848],[-76.496482,44.223849],[-76.496462,44.22384],[-76.49646,44.223825],[-76.496395,44.223828],[-76.496399,44.223869],[-76.496329,44.223872]]]}},{"type":"Feature","id":1072,"properties":{"osmId":"w657108807","name":"former Kingston Collegiate Vocational Institute","kind":"building","leisure":null,"building":"school","amenity":null,"levels":2,"clon":-76.49766836363636,"clat":44.229268272727275,"fid":1072},"geometry":{"type":"Polygon","coordinates":[[[-76.497312,44.229685],[-76.497292,44.229332],[-76.497376,44.229329],[-76.497374,44.229295],[-76.497361,44.229295],[-76.497346,44.229019],[-76.497617,44.229011],[-76.497621,44.229082],[-76.497721,44.229079],[-76.497716,44.228975],[-76.49791,44.228969],[-76.497891,44.22864],[-76.498137,44.228633],[-76.498147,44.228761],[-76.498198,44.229634],[-76.497816,44.229646],[-76.497808,44.229515],[-76.497697,44.229519],[-76.497701,44.229562],[-76.497672,44.229563],[-76.497679,44.229673],[-76.497312,44.229685]]]}},{"type":"Feature","id":1073,"properties":{"osmId":"w657108837","name":"Environmental Health & Safety Building","kind":"building","leisure":null,"building":"university","amenity":null,"levels":2,"clon":-76.49969955555555,"clat":44.22506461111111,"fid":1073},"geometry":{"type":"Polygon","coordinates":[[[-76.499619,44.225123],[-76.499601,44.225037],[-76.499607,44.225021],[-76.499621,44.225008],[-76.499645,44.225],[-76.499665,44.224999],[-76.499686,44.225005],[-76.499749,44.224999],[-76.499826,44.224994],[-76.499849,44.225091],[-76.499819,44.225094],[-76.499822,44.225107],[-76.499726,44.225118],[-76.499723,44.225105],[-76.49972,44.225105],[-76.499647,44.225114],[-76.499648,44.22512],[-76.499619,44.225123]]]}},{"type":"Feature","id":1074,"properties":{"osmId":"w657108952","name":null,"kind":"building","leisure":null,"building":"roof","amenity":null,"levels":2,"clon":-76.49799110000001,"clat":44.22748740000001,"fid":1074},"geometry":{"type":"Polygon","coordinates":[[[-76.4979575,44.2275167],[-76.4979484,44.2274911],[-76.4979395,44.2274663],[-76.498036,44.2274486],[-76.4980448,44.2274734],[-76.498054,44.227499],[-76.4979575,44.2275167]]]}},{"type":"Feature","id":1075,"properties":{"osmId":"w657108955","name":null,"kind":"building","leisure":null,"building":"yes","amenity":null,"levels":2,"clon":-76.49878503333333,"clat":44.227342349999994,"fid":1075},"geometry":{"type":"Polygon","coordinates":[[[-76.4987786,44.2273667],[-76.4987697,44.2273408],[-76.4987604,44.2273141],[-76.4988024,44.2273066],[-76.4988205,44.2273592],[-76.4987786,44.2273667]]]}},{"type":"Feature","id":1076,"properties":{"osmId":"w657108969","name":null,"kind":"building","leisure":null,"building":"university","amenity":null,"levels":2,"clon":-76.49996566666668,"clat":44.227036749999996,"fid":1076},"geometry":{"type":"Polygon","coordinates":[[[-76.499906,44.227093],[-76.499889,44.227023],[-76.499938,44.227016],[-76.499932,44.226994],[-76.499985,44.226987],[-76.49999,44.226987],[-76.499992,44.226997],[-76.500029,44.226992],[-76.50005,44.227084],[-76.499986,44.227091],[-76.499985,44.227084],[-76.499906,44.227093]]]}},{"type":"Feature","id":1077,"properties":{"osmId":"w787675324","name":"Adelaide Hall","kind":"building","leisure":null,"building":"dormitory","amenity":null,"levels":4,"clon":-76.49602228333332,"clat":44.224286150000005,"fid":1077},"geometry":{"type":"Polygon","coordinates":[[[-76.495912,44.224494],[-76.49582,44.224493],[-76.495819,44.22438],[-76.495813,44.22438],[-76.495812,44.224351],[-76.495803,44.224345],[-76.495829,44.224319],[-76.49582,44.224309],[-76.4958294,44.2242981],[-76.495838,44.224288],[-76.495852,44.224289],[-76.495878,44.224259],[-76.495885,44.224265],[-76.495921,44.22425],[-76.495926,44.224255],[-76.496157,44.224163],[-76.4962,44.224144],[-76.496205,44.224143],[-76.496209,44.224128],[-76.49624,44.224124],[-76.496251,44.224134],[-76.496422,44.224133],[-76.496421,44.224245],[-76.496371,44.224245],[-76.496371,44.224229],[-76.496261,44.224228],[-76.495986,44.224337],[-76.495951,44.224379],[-76.4959541,44.2244834],[-76.495912,44.224494]]]}},{"type":"Feature","id":1078,"properties":{"osmId":"w981456283","name":"Medical Quadrangle","kind":"leisure","leisure":"garden","building":null,"amenity":null,"levels":2,"clon":-76.492455308,"clat":44.22632697200001,"fid":1078},"geometry":{"type":"Polygon","coordinates":[[[-76.4923148,44.2262558],[-76.4923576,44.2262388],[-76.4924057,44.2262279],[-76.4924593,44.2262232],[-76.4925144,44.2262257],[-76.4925634,44.2262363],[-76.4926101,44.2262576],[-76.4926195,44.2262652],[-76.4926371,44.2262794],[-76.4926563,44.2263098],[-76.4926573,44.2263432],[-76.4926398,44.2263742],[-76.4926036,44.2264036],[-76.4925562,44.2264225],[-76.4925093,44.2264307],[-76.4924609,44.2264339],[-76.4924071,44.2264295],[-76.4923562,44.226419],[-76.4923491,44.2264168],[-76.4923087,44.2264022],[-76.492278,44.2263798],[-76.49226,44.2263507],[-76.4922593,44.2263134],[-76.4922842,44.2262793],[-76.4923148,44.2262558]]]}},{"type":"Feature","id":1079,"properties":{"osmId":"w987856585","name":null,"kind":"leisure","leisure":"pitch","building":null,"amenity":null,"levels":2,"clon":-76.50081308333333,"clat":44.222726566666665,"fid":1079},"geometry":{"type":"Polygon","coordinates":[[[-76.5008787,44.2228022],[-76.5006988,44.2228089],[-76.5006843,44.2226096],[-76.5008642,44.2226028],[-76.5008738,44.2227337],[-76.5008787,44.2228022]]]}},{"type":"Feature","id":1080,"properties":{"osmId":"w988458694","name":"Bruce Wing","kind":"building","leisure":null,"building":"university","amenity":null,"levels":5,"clon":-76.49312167647058,"clat":44.2271701,"fid":1080},"geometry":{"type":"Polygon","coordinates":[[[-76.493056,44.2273496],[-76.4930069,44.2273466],[-76.4930088,44.227329],[-76.4930253,44.2273296],[-76.493021,44.226936],[-76.4930961,44.226935],[-76.4930943,44.2268907],[-76.493151,44.22689],[-76.4931513,44.226911],[-76.493252,44.22691],[-76.49326,44.227232],[-76.493301,44.227266],[-76.493232,44.227319],[-76.49319,44.227287],[-76.4931078,44.2272866],[-76.493059,44.227324],[-76.493056,44.2273496]]]}},{"type":"Feature","id":1081,"properties":{"osmId":"w988923859","name":"A Wing","kind":"building","leisure":null,"building":"university","amenity":null,"levels":4,"clon":-76.49644840526315,"clat":44.22717017894737,"fid":1081},"geometry":{"type":"Polygon","coordinates":[[[-76.4967145,44.2272144],[-76.4967223,44.2272192],[-76.4967144,44.2272257],[-76.4962985,44.2272244],[-76.4962547,44.2272243],[-76.4962472,44.2272162],[-76.4962548,44.2272126],[-76.496255,44.2271812],[-76.4962551,44.2271452],[-76.496209,44.2271451],[-76.4962092,44.2271186],[-76.4962473,44.2271187],[-76.4962554,44.2271108],[-76.4963001,44.227111],[-76.4967151,44.2271123],[-76.496723,44.2271191],[-76.496715,44.2271238],[-76.4967146,44.2271964],[-76.4967145,44.2272144]]]}},{"type":"Feature","id":1082,"properties":{"osmId":"w988923860","name":"B Wing","kind":"building","leisure":null,"building":"university","amenity":null,"levels":5,"clon":-76.49679045714285,"clat":44.22692255,"fid":1082},"geometry":{"type":"Polygon","coordinates":[[[-76.4968469,44.2270184],[-76.4967443,44.2270181],[-76.4967311,44.2270181],[-76.4967216,44.2270234],[-76.496712,44.227018],[-76.4967133,44.2267948],[-76.4967229,44.2267895],[-76.4967323,44.2267948],[-76.4968481,44.2267951],[-76.4968576,44.2267897],[-76.4968672,44.2267951],[-76.4968659,44.2270185],[-76.4968563,44.2270238],[-76.4968469,44.2270184]]]}},{"type":"Feature","id":1083,"properties":{"osmId":"w988923861","name":"C Wing","kind":"building","leisure":null,"building":"university","amenity":null,"levels":5,"clon":-76.49708004482758,"clat":44.226778375862075,"fid":1083},"geometry":{"type":"Polygon","coordinates":[[[-76.4970161,44.2267733],[-76.4970159,44.2267957],[-76.4970065,44.2267903],[-76.4969969,44.2267956],[-76.4969967,44.2270203],[-76.4970063,44.2270257],[-76.4970157,44.2270204],[-76.4971156,44.2270204],[-76.4971316,44.2270204],[-76.497141,44.2270258],[-76.4971506,44.2270204],[-76.4971508,44.2267975],[-76.4971508,44.2267956],[-76.4971412,44.2267903],[-76.4971318,44.2267956],[-76.497132,44.2267734],[-76.4971414,44.2267788],[-76.497151,44.2267734],[-76.4971512,44.2266056],[-76.4971512,44.2265486],[-76.4971416,44.2265432],[-76.4971322,44.2265486],[-76.4971128,44.2265486],[-76.4970163,44.2265486],[-76.4970069,44.2265432],[-76.4969973,44.2265485],[-76.4969971,44.2267732],[-76.4970067,44.2267786],[-76.4970161,44.2267733]]]}},{"type":"Feature","id":1084,"properties":{"osmId":"w988923862","name":"D Wing","kind":"building","leisure":null,"building":"university","amenity":null,"levels":5,"clon":-76.49687616666667,"clat":44.22620469629629,"fid":1084},"geometry":{"type":"Polygon","coordinates":[[[-76.4968236,44.2261939],[-76.4968234,44.2262163],[-76.496814,44.2262109],[-76.4968044,44.2262163],[-76.4968042,44.226441],[-76.4968138,44.2264463],[-76.4968232,44.226441],[-76.496837,44.226441],[-76.4969391,44.2264411],[-76.4969485,44.2264464],[-76.4969581,44.2264411],[-76.4969583,44.2262163],[-76.4969487,44.2262109],[-76.4969393,44.2262162],[-76.4969395,44.226194],[-76.4969489,44.2261994],[-76.4969585,44.226194],[-76.4969587,44.2259692],[-76.4969491,44.2259639],[-76.4969397,44.2259692],[-76.4968411,44.2259692],[-76.4968238,44.2259692],[-76.4968144,44.2259638],[-76.4968048,44.2259692],[-76.4968046,44.2261939],[-76.4968142,44.2261992],[-76.4968236,44.2261939]]]}},{"type":"Feature","id":1085,"properties":{"osmId":"w988923863","name":"E Wing","kind":"building","leisure":null,"building":"university","amenity":null,"levels":3,"clon":-76.49712488518519,"clat":44.22620439629629,"fid":1085},"geometry":{"type":"Polygon","coordinates":[[[-76.4970682,44.2261936],[-76.497068,44.226216],[-76.4970586,44.2262106],[-76.497049,44.226216],[-76.4970488,44.2264407],[-76.4970584,44.226446],[-76.4970678,44.2264407],[-76.4971143,44.2264407],[-76.4971837,44.2264408],[-76.4971931,44.2264461],[-76.4972027,44.2264408],[-76.4972029,44.226216],[-76.4971933,44.2262106],[-76.4971839,44.2262159],[-76.4971841,44.2261937],[-76.4971935,44.2261991],[-76.4972031,44.2261937],[-76.4972033,44.2259689],[-76.4971937,44.2259636],[-76.4971843,44.2259689],[-76.4971642,44.2259689],[-76.4970684,44.2259689],[-76.497059,44.2259635],[-76.4970494,44.2259689],[-76.4970492,44.2261936],[-76.4970588,44.2261989],[-76.4970682,44.2261936]]]}},{"type":"Feature","id":1086,"properties":{"osmId":"w988923864","name":"F Wing","kind":"building","leisure":null,"building":"university","amenity":null,"levels":5,"clon":-76.49654054285713,"clat":44.22672786428573,"fid":1086},"geometry":{"type":"Polygon","coordinates":[[[-76.4963835,44.2267685],[-76.4963839,44.2266854],[-76.4963765,44.2266787],[-76.496384,44.2266718],[-76.4966975,44.2266725],[-76.496705,44.2266794],[-76.4966975,44.2266861],[-76.4966975,44.226694],[-76.4966973,44.2267692],[-76.4967047,44.2267759],[-76.4966972,44.2267828],[-76.4963835,44.2267821],[-76.496376,44.2267752],[-76.4963835,44.2267685]]]}},{"type":"Feature","id":1087,"properties":{"osmId":"w990213246","name":null,"kind":"building","leisure":null,"building":"semidetached_house","amenity":null,"levels":2,"clon":-76.49077267142857,"clat":44.22389285714286,"fid":1087},"geometry":{"type":"Polygon","coordinates":[[[-76.4907473,44.2238465],[-76.4907488,44.2238561],[-76.490762,44.223855],[-76.490848,44.223849],[-76.490859,44.223849],[-76.490859,44.223855],[-76.490928,44.223851],[-76.490932,44.223887],[-76.490898,44.223889],[-76.490903,44.22393],[-76.490873,44.223931],[-76.490873,44.223939],[-76.490774,44.223944],[-76.490776,44.223959],[-76.490624,44.223967],[-76.49062,44.223934],[-76.490615,44.223934],[-76.49061,44.223886],[-76.490616,44.223886],[-76.4906127,44.2238559],[-76.4907473,44.2238465]]]}},{"type":"Feature","id":1088,"properties":{"osmId":"w990213251","name":null,"kind":"building","leisure":null,"building":"university","amenity":null,"levels":2,"clon":-76.49074919999998,"clat":44.22432856666667,"fid":1088},"geometry":{"type":"Polygon","coordinates":[[[-76.4906578,44.2242721],[-76.49081,44.224264],[-76.490912,44.224259],[-76.490917,44.224307],[-76.490842,44.224311],[-76.490844,44.224333],[-76.490918,44.22433],[-76.490923,44.224381],[-76.490708,44.224391],[-76.490708,44.224396],[-76.49065,44.224399],[-76.490647,44.224363],[-76.490674,44.224362],[-76.490673,44.224336],[-76.490644,44.224336],[-76.49064,44.224302],[-76.49066,44.2243],[-76.4906578,44.2242721]]]}},{"type":"Feature","id":1089,"properties":{"osmId":"w990627020","name":"Earl Hall","kind":"building","leisure":null,"building":"university","amenity":null,"levels":4,"clon":-76.49101884074074,"clat":44.226468872222235,"fid":1089},"geometry":{"type":"Polygon","coordinates":[[[-76.4913594,44.2263916],[-76.4913923,44.2263137],[-76.4915014,44.2263226],[-76.4915235,44.2265699],[-76.4914164,44.2265895],[-76.4913699,44.2265153],[-76.4912579,44.2265198],[-76.4912885,44.2268594],[-76.4912653,44.226861],[-76.491169,44.2268659],[-76.49117,44.226882],[-76.491047,44.226888],[-76.4910456,44.226874],[-76.490946,44.22688],[-76.490939,44.226793],[-76.490922,44.226795],[-76.490919,44.22676],[-76.490935,44.226758],[-76.49093,44.226709],[-76.490915,44.226709],[-76.490912,44.226673],[-76.490927,44.226672],[-76.490923,44.226624],[-76.490908,44.226626],[-76.490899,44.226514],[-76.490878,44.226515],[-76.490876,44.226481],[-76.490867,44.226452],[-76.49087,44.226423],[-76.490867,44.226389],[-76.49089,44.226388],[-76.4908876,44.226367],[-76.490903,44.226366],[-76.490901,44.226335],[-76.490886,44.226335],[-76.490884,44.226312],[-76.490899,44.226311],[-76.490896,44.226279],[-76.490879,44.226279],[-76.490877,44.226256],[-76.490894,44.226255],[-76.490892,44.226222],[-76.490877,44.226224],[-76.490875,44.226198],[-76.490891,44.226198],[-76.490889,44.226167],[-76.49087,44.226168],[-76.490868,44.226144],[-76.490886,44.226143],[-76.4908845,44.2261257],[-76.491221,44.2261111],[-76.4912219,44.2261212],[-76.4912468,44.2263968],[-76.4913594,44.2263916]]]}},{"type":"Feature","id":1090,"properties":{"osmId":"w993255605","name":null,"kind":"leisure","leisure":"garden","building":null,"amenity":null,"levels":2,"clon":-76.49616626,"clat":44.22615176,"fid":1090},"geometry":{"type":"Polygon","coordinates":[[[-76.4961029,44.2261629],[-76.4961026,44.226134],[-76.4962618,44.2261349],[-76.4962611,44.2261641],[-76.4961029,44.2261629]]]}},{"type":"Feature","id":1091,"properties":{"osmId":"w993255607","name":null,"kind":"leisure","leisure":"garden","building":null,"amenity":null,"levels":2,"clon":-76.49635514,"clat":44.226096919999996,"fid":1091},"geometry":{"type":"Polygon","coordinates":[[[-76.4963012,44.2261055],[-76.4963015,44.2260831],[-76.496436,44.2260839],[-76.4964358,44.2261066],[-76.4963012,44.2261055]]]}},{"type":"Feature","id":1092,"properties":{"osmId":"w993255610","name":null,"kind":"leisure","leisure":"garden","building":null,"amenity":null,"levels":2,"clon":-76.49621363333333,"clat":44.2257664,"fid":1092},"geometry":{"type":"Polygon","coordinates":[[[-76.4963045,44.2257429],[-76.4963041,44.2257905],[-76.496242,44.2257902],[-76.4960632,44.2257897],[-76.4960635,44.2257422],[-76.4963045,44.2257429]]]}},{"type":"Feature","id":1093,"properties":{"osmId":"w993255611","name":null,"kind":"leisure","leisure":"garden","building":null,"amenity":null,"levels":2,"clon":-76.49572918,"clat":44.22573422000001,"fid":1093},"geometry":{"type":"Polygon","coordinates":[[[-76.4957185,44.2257441],[-76.4957188,44.2257193],[-76.4957452,44.2257194],[-76.4957449,44.2257442],[-76.4957185,44.2257441]]]}},{"type":"Feature","id":1094,"properties":{"osmId":"w995441672","name":"Queen's Centre","kind":"building","leisure":null,"building":"university","amenity":null,"levels":3,"clon":-76.49477064444446,"clat":44.22916453333334,"fid":1094},"geometry":{"type":"Polygon","coordinates":[[[-76.494591,44.229278],[-76.494581,44.229278],[-76.494583,44.229255],[-76.49462,44.2289457],[-76.4949738,44.2289665],[-76.495019,44.228969],[-76.494991,44.229234],[-76.494986,44.2292766],[-76.494591,44.229278]]]}},{"type":"Feature","id":1095,"properties":{"osmId":"w996729406","name":"Dunning Auditorium","kind":"building","leisure":null,"building":"university","amenity":null,"levels":1,"clon":-76.49595630588234,"clat":44.22718522941176,"fid":1095},"geometry":{"type":"Polygon","coordinates":[[[-76.4961836,44.2272854],[-76.4958783,44.2272846],[-76.4958779,44.2272698],[-76.4958632,44.2272695],[-76.4958628,44.2272418],[-76.4958539,44.2272418],[-76.4958439,44.2272048],[-76.4958439,44.2271628],[-76.4958519,44.2271208],[-76.4958613,44.2271206],[-76.4958609,44.2270918],[-76.4958701,44.2270918],[-76.4959239,44.2270918],[-76.4961306,44.2271172],[-76.4961839,44.2271238],[-76.4961835,44.2271452],[-76.4961836,44.2272854]]]}},{"type":"Feature","id":1096,"properties":{"osmId":"w997612639","name":null,"kind":"leisure","leisure":"garden","building":null,"amenity":null,"levels":2,"clon":-76.49529368,"clat":44.22628322,"fid":1096},"geometry":{"type":"Polygon","coordinates":[[[-76.4953818,44.2263058],[-76.4951614,44.2263059],[-76.4951614,44.226249],[-76.495382,44.2262496],[-76.4953818,44.2263058]]]}},{"type":"Feature","id":1097,"properties":{"osmId":"w997612640","name":null,"kind":"leisure","leisure":"garden","building":null,"amenity":null,"levels":2,"clon":-76.49529334,"clat":44.22617064000001,"fid":1097},"geometry":{"type":"Polygon","coordinates":[[[-76.4953814,44.2261928],[-76.495161,44.2261923],[-76.4951613,44.2261376],[-76.4953816,44.2261377],[-76.4953814,44.2261928]]]}},{"type":"Feature","id":1098,"properties":{"osmId":"w1000635753","name":null,"kind":"leisure","leisure":"garden","building":null,"amenity":null,"levels":2,"clon":-76.49627182,"clat":44.22572129999999,"fid":1098},"geometry":{"type":"Polygon","coordinates":[[[-76.4962496,44.2257339],[-76.4962499,44.2257022],[-76.4963053,44.2257025],[-76.4963047,44.225734],[-76.4962496,44.2257339]]]}},{"type":"Feature","id":1099,"properties":{"osmId":"w1000924781","name":null,"kind":"building","leisure":null,"building":"yes","amenity":null,"levels":2,"clon":-76.49655972,"clat":44.225852579999994,"fid":1099},"geometry":{"type":"Polygon","coordinates":[[[-76.496489,44.2258334],[-76.4965756,44.2258339],[-76.4965757,44.2258282],[-76.4965816,44.2258283],[-76.4966242,44.2258285],[-76.4966235,44.2258939],[-76.4965749,44.2258937],[-76.4965751,44.2258765],[-76.4964886,44.225876],[-76.496489,44.2258334]]]}},{"type":"Feature","id":1100,"properties":{"osmId":"w1020855116","name":null,"kind":"leisure","leisure":"garden","building":null,"amenity":null,"levels":2,"clon":-76.49538317857142,"clat":44.22846372857144,"fid":1100},"geometry":{"type":"Polygon","coordinates":[[[-76.4953392,44.228459],[-76.4953044,44.2284899],[-76.4952831,44.2284886],[-76.49529,44.2284307],[-76.4954266,44.2284391],[-76.4954298,44.2284123],[-76.4954504,44.2284136],[-76.4954393,44.228506],[-76.4954187,44.2285047],[-76.4954193,44.2284995],[-76.4954235,44.2284642],[-76.4954131,44.2284636],[-76.4953879,44.228462],[-76.4953392,44.228459]]]}},{"type":"Feature","id":1101,"properties":{"osmId":"w1041580428","name":"Students' Memorial Union","kind":"building","leisure":null,"building":"university","amenity":null,"levels":3,"clon":-76.49504444444445,"clat":44.228222450000004,"fid":1101},"geometry":{"type":"Polygon","coordinates":[[[-76.4951427,44.2283858],[-76.4951615,44.2282277],[-76.4948216,44.2282056],[-76.494709,44.2281988],[-76.494726,44.228071],[-76.494832,44.228076],[-76.49483,44.228094],[-76.4948883,44.2280972],[-76.4949438,44.2281003],[-76.4949947,44.2281032],[-76.4951748,44.2281136],[-76.495177,44.228095],[-76.495309,44.228102],[-76.4952784,44.2283641],[-76.4952722,44.2284176],[-76.4952646,44.2284873],[-76.4951317,44.2284791],[-76.4951427,44.2283858]]]}},{"type":"Feature","id":1102,"properties":{"osmId":"w1041580430","name":"Graduate Residence","kind":"building","leisure":null,"building":"dormitory","amenity":null,"levels":6,"clon":-76.49488108333335,"clat":44.22834480833333,"fid":1102},"geometry":{"type":"Polygon","coordinates":[[[-76.4951427,44.2283858],[-76.4951317,44.2284791],[-76.4951302,44.2284916],[-76.4950664,44.2284877],[-76.4946464,44.2284621],[-76.4946727,44.228241],[-76.4946508,44.2282396],[-76.4946561,44.2281955],[-76.494709,44.2281988],[-76.4948216,44.2282056],[-76.4948027,44.2283651],[-76.4951427,44.2283858]]]}},{"type":"Feature","id":1103,"properties":{"osmId":"w1041580431","name":"The Ceilidh","kind":"building","leisure":null,"building":"university","amenity":null,"levels":2,"clon":-76.49495001999999,"clat":44.22827796,"fid":1103},"geometry":{"type":"Polygon","coordinates":[[[-76.4948216,44.2282056],[-76.4951615,44.2282277],[-76.4951427,44.2283858],[-76.4948027,44.2283651],[-76.4948216,44.2282056]]]}},{"type":"Feature","id":1104,"properties":{"osmId":"w1051951703","name":null,"kind":"building","leisure":null,"building":"school","amenity":null,"levels":2,"clon":-76.497512565,"clat":44.22803151999999,"fid":1104},"geometry":{"type":"Polygon","coordinates":[[[-76.4974067,44.2281528],[-76.4974023,44.2281175],[-76.4973947,44.228118],[-76.4973888,44.2280696],[-76.4973957,44.2280691],[-76.4973876,44.2280032],[-76.4973822,44.2280036],[-76.4973765,44.2279571],[-76.497381,44.2279568],[-76.4973762,44.2279177],[-76.4973989,44.2279163],[-76.4973984,44.2279123],[-76.4974708,44.2279077],[-76.4974713,44.2279118],[-76.4974836,44.227911],[-76.4974813,44.2278923],[-76.4975141,44.2278902],[-76.497547,44.2278881],[-76.4975493,44.2279065],[-76.4975648,44.2279055],[-76.4975643,44.2279013],[-76.4976308,44.2278971],[-76.4976314,44.2279014],[-76.4976538,44.2279],[-76.4976585,44.2279383],[-76.4976628,44.2279381],[-76.4976687,44.2279855],[-76.4976621,44.2279859],[-76.49767,44.2280497],[-76.4976811,44.2281406],[-76.497662,44.2281418],[-76.497667,44.2281821],[-76.4976862,44.2281809],[-76.497715,44.2284157],[-76.4974414,44.2284329],[-76.4974126,44.2281976],[-76.4974273,44.2281967],[-76.4974224,44.2281572],[-76.4974073,44.2281581],[-76.4974067,44.2281528]]]}},{"type":"Feature","id":1105,"properties":{"osmId":"w1052090398","name":null,"kind":"building","leisure":null,"building":"roof","amenity":null,"levels":2,"clon":-76.49775896666668,"clat":44.22698405,"fid":1105},"geometry":{"type":"Polygon","coordinates":[[[-76.4977827,44.2270013],[-76.4977626,44.227005],[-76.4977435,44.2270086],[-76.4977216,44.2269477],[-76.4977607,44.2269404],[-76.4977827,44.2270013]]]}},{"type":"Feature","id":1106,"properties":{"osmId":"w1052090399","name":null,"kind":"building","leisure":null,"building":"roof","amenity":null,"levels":2,"clon":-76.4976174,"clat":44.2265911,"fid":1106},"geometry":{"type":"Polygon","coordinates":[[[-76.4976512,44.226627],[-76.4976121,44.2266343],[-76.4976019,44.2266061],[-76.4975744,44.2265297],[-76.4976136,44.2265225],[-76.4976512,44.226627]]]}},{"type":"Feature","id":1107,"properties":{"osmId":"w1052090400","name":null,"kind":"building","leisure":null,"building":"roof","amenity":null,"levels":2,"clon":-76.49858921666667,"clat":44.22624133333334,"fid":1107},"geometry":{"type":"Polygon","coordinates":[[[-76.4985649,44.2262581],[-76.49856,44.2262441],[-76.4985551,44.2262301],[-76.4986403,44.2262148],[-76.4986501,44.2262428],[-76.4985649,44.2262581]]]}},{"type":"Feature","id":1108,"properties":{"osmId":"w1052090401","name":null,"kind":"building","leisure":null,"building":"roof","amenity":null,"levels":2,"clon":-76.49874953333334,"clat":44.22670256666667,"fid":1108},"geometry":{"type":"Polygon","coordinates":[[[-76.4987252,44.2267193],[-76.4987203,44.2267053],[-76.4987155,44.2266914],[-76.4988006,44.2266761],[-76.4988104,44.226704],[-76.4987252,44.2267193]]]}},{"type":"Feature","id":1109,"properties":{"osmId":"w1052090402","name":null,"kind":"building","leisure":null,"building":"roof","amenity":null,"levels":2,"clon":-76.49873935714285,"clat":44.22734578571429,"fid":1109},"geometry":{"type":"Polygon","coordinates":[[[-76.4987015,44.2273245],[-76.4987604,44.2273141],[-76.4987697,44.2273408],[-76.4987786,44.2273667],[-76.4987441,44.2273728],[-76.4987197,44.2273771],[-76.4987015,44.2273245]]]}},{"type":"Feature","id":1110,"properties":{"osmId":"w1052090403","name":null,"kind":"building","leisure":null,"building":"roof","amenity":null,"levels":2,"clon":-76.49807571428572,"clat":44.227468128571424,"fid":1110},"geometry":{"type":"Polygon","coordinates":[[[-76.4980946,44.2274379],[-76.4981126,44.2274883],[-76.4980934,44.2274918],[-76.498054,44.227499],[-76.4980448,44.2274734],[-76.498036,44.2274486],[-76.4980946,44.2274379]]]}},{"type":"Feature","id":1111,"properties":{"osmId":"w1052094385","name":"Tindall Field","kind":"leisure","leisure":"pitch","building":null,"amenity":null,"levels":2,"clon":-76.49804106,"clat":44.22662938,"fid":1111},"geometry":{"type":"Polygon","coordinates":[[[-76.4976287,44.2263327],[-76.4983558,44.2262026],[-76.4986597,44.2270744],[-76.4979324,44.2272045],[-76.4976287,44.2263327]]]}},{"type":"Feature","id":1112,"properties":{"osmId":"w1168833291","name":"FryWay","kind":"building","leisure":null,"building":"trailer","amenity":"fast_food","levels":2,"clon":-76.4922953,"clat":44.224780179999996,"fid":1112},"geometry":{"type":"Polygon","coordinates":[[[-76.4923283,44.2247897],[-76.4922445,44.224787],[-76.4922458,44.2247659],[-76.4923296,44.2247686],[-76.4923283,44.2247897]]]}},{"type":"Feature","id":1113,"properties":{"osmId":"w1486794812","name":null,"kind":"leisure","leisure":"pitch","building":null,"amenity":null,"levels":2,"clon":-76.49377318,"clat":44.225104040000005,"fid":1113},"geometry":{"type":"Polygon","coordinates":[[[-76.4938333,44.2251883],[-76.4936943,44.2251921],[-76.493683,44.2249776],[-76.493822,44.2249739],[-76.4938333,44.2251883]]]}},{"type":"Feature","id":1114,"properties":{"osmId":"w1486794813","name":null,"kind":"leisure","leisure":"pitch","building":null,"amenity":null,"levels":2,"clon":-76.49359147999999,"clat":44.22510982,"fid":1114},"geometry":{"type":"Polygon","coordinates":[[[-76.4936516,44.2251941],[-76.4935126,44.2251979],[-76.4935013,44.2249834],[-76.4936403,44.2249796],[-76.4936516,44.2251941]]]}},{"type":"Feature","id":1115,"properties":{"osmId":"w1507301554","name":null,"kind":"building","leisure":null,"building":"yes","amenity":null,"levels":5,"clon":-76.50002816666667,"clat":44.223873700000006,"fid":1115},"geometry":{"type":"Polygon","coordinates":[[[-76.5000539,44.223887],[-76.5000503,44.2238573],[-76.5000146,44.2238599],[-76.4999968,44.2238613],[-76.4999995,44.2238897],[-76.5000539,44.223887]]]}},{"type":"Feature","id":1116,"properties":{"osmId":"w1507301555","name":null,"kind":"building","leisure":null,"building":"yes","amenity":null,"levels":5,"clon":-76.49999652,"clat":44.22385186,"fid":1116},"geometry":{"type":"Polygon","coordinates":[[[-76.5000146,44.2238599],[-76.5000115,44.2238381],[-76.4999691,44.2238395],[-76.4999728,44.2238619],[-76.5000146,44.2238599]]]}},{"type":"Feature","id":1117,"properties":{"osmId":"w1507301556","name":null,"kind":"building","leisure":null,"building":"yes","amenity":null,"levels":10,"clon":-76.50009709999999,"clat":44.223549260000006,"fid":1117},"geometry":{"type":"Polygon","coordinates":[[[-76.4999635,44.2236061],[-76.4999497,44.2234812],[-76.5002993,44.223464],[-76.5003095,44.2235889],[-76.4999635,44.2236061]]]}}]}